{
"type": "FeatureCollection",
"name": "hin2018_priority",
"crs": { "type": "name", "properties": { "name": "urn:ogc:def:crs:OGC:1.3:CRS84" } },
"features": [
{ "type": "Feature", "properties": { "FID": 1, "OBJECTID": 6, "RegionalRo": "AIRLINE DR", "Regional_1": "1031", "Regional_2": 0.500000019041, "BenSummary": 5, "BenSumma_1": 2, "BenSumma_2": 0, "BenSumma_3": 3, "BenSumma_4": 3, "BenSumma_5": 1, "BenSumma_6": 0, "BenSumma_7": 2, "TotalCrash": 9.9999996191899996, "VehCrashRa": 5.9999997715099997, "PedCrashRa": 3.9999998476799998, "BikeCrashR": 0.0, "Shape_Leng": 2640.0001005300001, "SVI": 1, "TIRZ": " ", "MD": "Greater Northside", "Shape__Length": 2640.0001005204449 }, "geometry": { "type": "LineString", "coordinates": [ [ -95.384260528520414, 29.828657501449754 ], [ -95.384267833403001, 29.828857337300665 ], [ -95.384310627508427, 29.829229174972109 ], [ -95.384348487321233, 29.829742500859407 ], [ -95.384353172092858, 29.830848377460956 ], [ -95.384381287018485, 29.831654913373598 ], [ -95.384391141617272, 29.832047697449408 ], [ -95.384399150086821, 29.832234599105952 ], [ -95.384393073767782, 29.832697203617219 ], [ -95.384391921346435, 29.833047431710899 ], [ -95.384391097827859, 29.833297904854184 ], [ -95.384390425636624, 29.833502927637035 ], [ -95.384389327341552, 29.833836830992801 ], [ -95.384353040779146, 29.834600126154847 ], [ -95.384358519631576, 29.835913035567174 ] ] } },
{ "type": "Feature", "properties": { "FID": 2, "OBJECTID": 9, "RegionalRo": "AIRLINE DR", "Regional_1": "1040", "Regional_2": 0.49999999857499999, "BenSummary": 7, "BenSumma_1": 1, "BenSumma_2": 0, "BenSumma_3": 6, "BenSumma_4": 2, "BenSumma_5": 0, "BenSumma_6": 0, "BenSumma_7": 2, "TotalCrash": 14.0000000399, "VehCrashRa": 12.000000034199999, "PedCrashRa": 2.0000000057, "BikeCrashR": 0.0, "Shape_Leng": 2639.9999924799999, "SVI": 0, "TIRZ": " ", "MD": "Greater Northside", "Shape__Length": 2639.9999924789317 }, "geometry": { "type": "LineString", "coordinates": [ [ -95.38475277619392, 29.864945559574327 ], [ -95.384813917476791, 29.867209401505775 ], [ -95.384840399919597, 29.868445956432232 ], [ -95.384850094281717, 29.869042281750673 ], [ -95.384857354059463, 29.870050052778666 ], [ -95.384866235549566, 29.870485946242514 ], [ -95.384868197624016, 29.870694999303431 ], [ -95.384883486774498, 29.870979860793337 ], [ -95.384892483916502, 29.871098720966572 ], [ -95.38489605012613, 29.871196705810522 ], [ -95.384899339284289, 29.87133364713943 ], [ -95.384888272070782, 29.871408960640583 ], [ -95.384871204228503, 29.871519709559326 ], [ -95.384872926837659, 29.871735629646729 ], [ -95.384887669296276, 29.871928188428956 ], [ -95.384897076592921, 29.87220153165913 ] ] } },
{ "type": "Feature", "properties": { "FID": 3, "OBJECTID": 15, "RegionalRo": "AIRPORT BLVD", "Regional_1": "1067", "Regional_2": 0.434289674417, "BenSummary": 6, "BenSumma_1": 2, "BenSumma_2": 0, "BenSumma_3": 4, "BenSumma_4": 2, "BenSumma_5": 2, "BenSumma_6": 0, "BenSumma_7": 0, "TotalCrash": 13.815663492500001, "VehCrashRa": 9.2104423283100001, "PedCrashRa": 4.6052211641599996, "BikeCrashR": 0.0, "Shape_Leng": 2293.04948092, "SVI": 3, "TIRZ": "Gulfgate", "MD": "HCID #9", "Shape__Length": 2293.0494809213005 }, "geometry": { "type": "LineString", "coordinates": [ [ -95.258106788199683, 29.652125465577374 ], [ -95.257768251512772, 29.652111875417795 ], [ -95.25737877586775, 29.652105432280354 ], [ -95.256996523634854, 29.652110314223254 ], [ -95.25614640568196, 29.652127692221633 ], [ -95.255357123474965, 29.652146425621364 ], [ -95.25500444956559, 29.652151073212821 ], [ -95.254414575025962, 29.652155982632603 ], [ -95.253756980505557, 29.65216696056363 ], [ -95.253436001863577, 29.65217438324548 ], [ -95.252922950437224, 29.652197512112863 ], [ -95.252548232508161, 29.652256462150081 ], [ -95.252212632179976, 29.652347334379996 ], [ -95.252107582575562, 29.652375079984065 ], [ -95.251805548601027, 29.652454848814237 ], [ -95.251593007424944, 29.65250359169416 ], [ -95.251393479816187, 29.652549349614059 ], [ -95.251375862908219, 29.652551966999432 ], [ -95.251187207187698, 29.652579996349484 ], [ -95.250949499751471, 29.652615313119849 ] ] } },
{ "type": "Feature", "properties": { "FID": 4, "OBJECTID": 20, "RegionalRo": "ALDINE BENDER RD", "Regional_1": "1392", "Regional_2": 0.50000000964400004, "BenSummary": 5, "BenSumma_1": 2, "BenSumma_2": 0, "BenSumma_3": 3, "BenSumma_4": 2, "BenSumma_5": 2, "BenSumma_6": 0, "BenSumma_7": 0, "TotalCrash": 9.9999998071099991, "VehCrashRa": 5.9999998842700002, "PedCrashRa": 3.9999999228399998, "BikeCrashR": 0.0, "Shape_Leng": 2640.0000509199999, "SVI": 2, "TIRZ": " ", "MD": "Aldine PID", "Shape__Length": 2640.0000509237616 }, "geometry": { "type": "LineString", "coordinates": [ [ -95.381302723303023, 29.932494413415704 ], [ -95.380652933196245, 29.932606698397656 ], [ -95.379860090375075, 29.932749131016177 ], [ -95.379581674776517, 29.932799144749378 ], [ -95.379001167404368, 29.932903424896448 ], [ -95.378300416545656, 29.933003941990808 ], [ -95.377635444047627, 29.933113129336274 ], [ -95.376443219701116, 29.933293441705256 ], [ -95.374222378440749, 29.933382632606662 ], [ -95.373056654997853, 29.933389062027139 ] ] } },
{ "type": "Feature", "properties": { "FID": 5, "OBJECTID": 42, "RegionalRo": "ALMEDA RD", "Regional_1": "1863", "Regional_2": 0.49999999168800002, "BenSummary": 6, "BenSumma_1": 2, "BenSumma_2": 0, "BenSumma_3": 4, "BenSumma_4": 4, "BenSumma_5": 2, "BenSumma_6": 0, "BenSumma_7": 2, "TotalCrash": 12.000000199500001, "VehCrashRa": 8.0000001329899995, "PedCrashRa": 4.0000000664900002, "BikeCrashR": 0.0, "Shape_Leng": 2639.9999561099999, "SVI": 0, "TIRZ": "Hiram Clarke/FB Houston/Greater Houston", "MD": "HCID #10B (Five Corners)", "Shape__Length": 2639.9999561191271 }, "geometry": { "type": "LineString", "coordinates": [ [ -95.417833296031887, 29.618031923408243 ], [ -95.418215981353185, 29.617066718638103 ], [ -95.41889313622795, 29.615372214755986 ], [ -95.419216888027023, 29.614564013127836 ], [ -95.419591814885209, 29.613628044204511 ], [ -95.420548480261445, 29.611170277417365 ] ] } },
{ "type": "Feature", "properties": { "FID": 6, "OBJECTID": 85, "RegionalRo": "BELLAIRE BLVD", "Regional_1": "8104", "Regional_2": 0.49999995740600001, "BenSummary": 6, "BenSumma_1": 4, "BenSumma_2": 0, "BenSumma_3": 2, "BenSumma_4": 2, "BenSumma_5": 2, "BenSumma_6": 0, "BenSumma_7": 0, "TotalCrash": 12.000001022299999, "VehCrashRa": 4.0000003407499998, "PedCrashRa": 8.0000006815100004, "BikeCrashR": 0.0, "Shape_Leng": 2639.9997751000001, "SVI": 2, "TIRZ": "Southwest Houston", "MD": "Sharpstown", "Shape__Length": 2639.9997751040578 }, "geometry": { "type": "LineString", "coordinates": [ [ -95.54377349456108, 29.704940189627152 ], [ -95.543912600613496, 29.704938933227655 ], [ -95.544188348352293, 29.704940556384592 ], [ -95.545294354329599, 29.704938766283888 ], [ -95.545728907028874, 29.704937228179464 ], [ -95.545933413964377, 29.704936128359495 ], [ -95.546385353883309, 29.704905362315245 ], [ -95.546517569760283, 29.704903550032959 ], [ -95.546683103445289, 29.704901278888872 ], [ -95.54728557729166, 29.704900879251916 ], [ -95.548242561944477, 29.704890492094449 ], [ -95.549765427487074, 29.704881930746573 ], [ -95.550724499160467, 29.704850325227998 ], [ -95.551460351938474, 29.704815916818987 ], [ -95.552085270798543, 29.704782202998732 ] ] } },
{ "type": "Feature", "properties": { "FID": 7, "OBJECTID": 86, "RegionalRo": "BELLAIRE BLVD", "Regional_1": "8105", "Regional_2": 0.50000006988199996, "BenSummary": 8, "BenSumma_1": 4, "BenSumma_2": 1, "BenSumma_3": 3, "BenSumma_4": 4, "BenSumma_5": 4, "BenSumma_6": 0, "BenSumma_7": 0, "TotalCrash": 15.9999977638, "VehCrashRa": 5.9999991614199999, "PedCrashRa": 7.9999988818899999, "BikeCrashR": 1.99999972047, "Shape_Leng": 2640.0003689800001, "SVI": 3, "TIRZ": "Southwest Houston", "MD": "Sharpstown", "Shape__Length": 2640.0003689774308 }, "geometry": { "type": "LineString", "coordinates": [ [ -95.535458055251809, 29.70502345600195 ], [ -95.535945630262361, 29.705014091756588 ], [ -95.53615078137183, 29.705017979927479 ], [ -95.537578850220655, 29.705007089823546 ], [ -95.537978826430134, 29.704998433037396 ], [ -95.539945628216685, 29.704974750277078 ], [ -95.541223124159131, 29.704960690211497 ], [ -95.542508168328666, 29.704946533927501 ], [ -95.542745403663005, 29.704949472932888 ], [ -95.54377349456108, 29.704940189627152 ] ] } },
{ "type": "Feature", "properties": { "FID": 8, "OBJECTID": 99, "RegionalRo": "BELLFORT ST", "Regional_1": "8228", "Regional_2": 0.50000009760899999, "BenSummary": 7, "BenSumma_1": 1, "BenSumma_2": 0, "BenSumma_3": 6, "BenSumma_4": 2, "BenSumma_5": 1, "BenSumma_6": 0, "BenSumma_7": 1, "TotalCrash": 13.999997266899999, "VehCrashRa": 11.9999976574, "PedCrashRa": 1.9999996095599999, "BikeCrashR": 0.0, "Shape_Leng": 2640.0005153799998, "SVI": 1, "TIRZ": "Gulfgate", "MD": "HCID #9", "Shape__Length": 2640.0005153769816 }, "geometry": { "type": "LineString", "coordinates": [ [ -95.292715543513779, 29.673758683096818 ], [ -95.291743277125065, 29.673760751627899 ], [ -95.291013581264551, 29.673685446517023 ], [ -95.290543957071876, 29.673589799440816 ], [ -95.290057825871784, 29.673466152579504 ], [ -95.289384341570681, 29.673260800506903 ], [ -95.289188207541727, 29.673191095040401 ], [ -95.288397474698328, 29.672929056671929 ], [ -95.287783549895792, 29.672741186466098 ], [ -95.287519260585981, 29.672670544565733 ], [ -95.286218202907051, 29.672410021224682 ], [ -95.285624653161165, 29.672355989140488 ], [ -95.284637853909217, 29.672302673613363 ] ] } },
{ "type": "Feature", "properties": { "FID": 9, "OBJECTID": 109, "RegionalRo": "BISSONNET ST", "Regional_1": "9680", "Regional_2": 0.50000007348300002, "BenSummary": 11, "BenSumma_1": 6, "BenSumma_2": 0, "BenSumma_3": 5, "BenSumma_4": 2, "BenSumma_5": 2, "BenSumma_6": 0, "BenSumma_7": 0, "TotalCrash": 21.999996766799999, "VehCrashRa": 9.9999985303500001, "PedCrashRa": 11.9999982364, "BikeCrashR": 0.0, "Shape_Leng": 2640.00038799, "SVI": 1, "TIRZ": "Southwest Houston", "MD": "Sharpstown", "Shape__Length": 2640.0003879885435 }, "geometry": { "type": "LineString", "coordinates": [ [ -95.547576987747476, 29.675503154473731 ], [ -95.547865231410071, 29.675487283352695 ], [ -95.548698477253467, 29.675441402824507 ], [ -95.549738789066012, 29.675375363661395 ], [ -95.550152656228477, 29.67534767062595 ], [ -95.550668120340305, 29.675303412640591 ], [ -95.551262976218609, 29.675249690844005 ], [ -95.551892424900629, 29.675212202291355 ], [ -95.552328883724471, 29.675165904104375 ], [ -95.552715899833601, 29.675152856692012 ], [ -95.553655265167635, 29.675085432767151 ], [ -95.55388026208918, 29.675082757453048 ], [ -95.554725079278711, 29.675027111754275 ], [ -95.555156184555045, 29.674981947491954 ], [ -95.55586348361426, 29.674937213885201 ] ] } },
{ "type": "Feature", "properties": { "FID": 10, "OBJECTID": 111, "RegionalRo": "BISSONNET ST", "Regional_1": "9686", "Regional_2": 0.49999999920100002, "BenSummary": 6, "BenSumma_1": 5, "BenSumma_2": 0, "BenSumma_3": 1, "BenSumma_4": 2, "BenSumma_5": 1, "BenSumma_6": 0, "BenSumma_7": 1, "TotalCrash": 12.0000000192, "VehCrashRa": 2.0000000031999998, "PedCrashRa": 10.000000016, "BikeCrashR": 0.0, "Shape_Leng": 2639.9999957800001, "SVI": 2, "TIRZ": "Southwest Houston", "MD": "Sharpstown", "Shape__Length": 2639.999995778639 }, "geometry": { "type": "LineString", "coordinates": [ [ -95.502967787354933, 29.689750090514504 ], [ -95.503821295913994, 29.689287076264641 ], [ -95.504430946685218, 29.688982686703579 ], [ -95.505716247735975, 29.688318629267858 ], [ -95.505957037775914, 29.688200033518896 ], [ -95.507510190929111, 29.687420128202852 ], [ -95.508739720353745, 29.68678479866643 ], [ -95.509646167052921, 29.686319348260614 ], [ -95.510105637599594, 29.686083410434158 ], [ -95.510133878062035, 29.686068740029 ] ] } },
{ "type": "Feature", "properties": { "FID": 11, "OBJECTID": 161, "RegionalRo": "CHIMNEY ROCK RD", "Regional_1": "19076", "Regional_2": 0.499999969376, "BenSummary": 5, "BenSumma_1": 2, "BenSumma_2": 0, "BenSumma_3": 3, "BenSumma_4": 2, "BenSumma_5": 2, "BenSumma_6": 0, "BenSumma_7": 0, "TotalCrash": 10.000000612499999, "VehCrashRa": 6.0000003674900002, "PedCrashRa": 4.0000002449899998, "BikeCrashR": 0.0, "Shape_Leng": 2639.9998383000002, "SVI": 2, "TIRZ": " ", "MD": " ", "Shape__Length": 2639.9998382900294 }, "geometry": { "type": "LineString", "coordinates": [ [ -95.476463501823645, 29.721183945076739 ], [ -95.476443871635738, 29.720141392162272 ], [ -95.476461425341526, 29.719240114412514 ], [ -95.476460129492779, 29.718773688487296 ], [ -95.476441773478271, 29.718139196728576 ], [ -95.476431267664978, 29.717776054400741 ], [ -95.476426743083493, 29.717449632195805 ], [ -95.476413951431482, 29.716526458720562 ], [ -95.476417084889803, 29.716029838819715 ], [ -95.476388234479927, 29.714704128935658 ], [ -95.476372658049868, 29.713924888893864 ] ] } },
{ "type": "Feature", "properties": { "FID": 12, "OBJECTID": 189, "RegionalRo": "CROSSTIMBERS ST", "Regional_1": "23933", "Regional_2": 0.50000000247700005, "BenSummary": 5, "BenSumma_1": 2, "BenSumma_2": 0, "BenSumma_3": 3, "BenSumma_4": 2, "BenSumma_5": 1, "BenSumma_6": 0, "BenSumma_7": 1, "TotalCrash": 9.9999999504599995, "VehCrashRa": 5.9999999702800002, "PedCrashRa": 3.9999999801800001, "BikeCrashR": 0.0, "Shape_Leng": 2640.0000130799999, "SVI": 1, "TIRZ": " ", "MD": "Greater Northside", "Shape__Length": 2640.000013077477 }, "geometry": { "type": "LineString", "coordinates": [ [ -95.399806472192509, 29.828167195272901 ], [ -95.399184336533452, 29.828211481278 ], [ -95.39768640706572, 29.828398718449961 ], [ -95.395402327725577, 29.828523406357323 ], [ -95.394547371773854, 29.828525506707109 ], [ -95.393716518662785, 29.828533704522698 ], [ -95.392844764560905, 29.828545075436473 ], [ -95.392063186068555, 29.828544235247673 ], [ -95.391502190412282, 29.828549112946256 ] ] } },
{ "type": "Feature", "properties": { "FID": 13, "OBJECTID": 190, "RegionalRo": "CROSSTIMBERS ST", "Regional_1": "23935", "Regional_2": 0.49999995105400002, "BenSummary": 7, "BenSumma_1": 2, "BenSumma_2": 0, "BenSumma_3": 5, "BenSumma_4": 2, "BenSumma_5": 1, "BenSumma_6": 0, "BenSumma_7": 1, "TotalCrash": 14.0000013705, "VehCrashRa": 10.000000978899999, "PedCrashRa": 4.0000003915700004, "BikeCrashR": 0.0, "Shape_Leng": 2639.9997415600001, "SVI": 1, "TIRZ": " ", "MD": "Greater Northside", "Shape__Length": 2639.999741564051 }, "geometry": { "type": "LineString", "coordinates": [ [ -95.391502190412282, 29.828549112946256 ], [ -95.390920884314681, 29.828554164648708 ], [ -95.390694883273525, 29.828555569809598 ], [ -95.39000698744222, 29.828564955099147 ], [ -95.38908702315905, 29.82857295375592 ], [ -95.388237430371902, 29.828584330995223 ], [ -95.387452688344666, 29.828608604029903 ], [ -95.387070448785295, 29.828613386728659 ], [ -95.386662560743716, 29.828614673566026 ], [ -95.3858820217676, 29.828637636245364 ], [ -95.384259324090507, 29.828624562148608 ], [ -95.383729220112173, 29.828626230812542 ], [ -95.383177178993407, 29.828627965496608 ] ] } },
{ "type": "Feature", "properties": { "FID": 14, "OBJECTID": 194, "RegionalRo": "CULLEN BLVD", "Regional_1": "24212", "Regional_2": 0.49999996413699999, "BenSummary": 11, "BenSumma_1": 2, "BenSumma_2": 1, "BenSumma_3": 8, "BenSumma_4": 3, "BenSumma_5": 0, "BenSumma_6": 1, "BenSumma_7": 2, "TotalCrash": 22.000001578, "VehCrashRa": 16.000001147599999, "PedCrashRa": 4.0000002868999998, "BikeCrashR": 2.0000001434499999, "Shape_Leng": 2639.9998106500002, "SVI": 1, "TIRZ": "Sunnyside", "MD": "HCID #10A", "Shape__Length": 2639.9998106456596 }, "geometry": { "type": "LineString", "coordinates": [ [ -95.355506882363073, 29.661020645976322 ], [ -95.355496129157217, 29.660582200186287 ], [ -95.355483639578978, 29.659862607327547 ], [ -95.355476260193285, 29.659152679596115 ], [ -95.355447764786902, 29.658423123645882 ], [ -95.355427607720841, 29.657612819286719 ], [ -95.355428589910275, 29.657126993349003 ], [ -95.355419286839862, 29.656671421854352 ], [ -95.355418067236641, 29.65590759074524 ], [ -95.355388003514562, 29.654633665504669 ], [ -95.355378806125046, 29.654243858831876 ], [ -95.355379718083043, 29.653936729912783 ], [ -95.355377157612637, 29.653761700717684 ] ] } },
{ "type": "Feature", "properties": { "FID": 15, "OBJECTID": 195, "RegionalRo": "CULLEN BLVD", "Regional_1": "24213", "Regional_2": 0.49999998722400002, "BenSummary": 6, "BenSumma_1": 1, "BenSumma_2": 1, "BenSumma_3": 4, "BenSumma_4": 2, "BenSumma_5": 1, "BenSumma_6": 0, "BenSumma_7": 1, "TotalCrash": 12.0000003066, "VehCrashRa": 8.0000002044199992, "PedCrashRa": 2.0000000510999998, "BikeCrashR": 2.0000000510999998, "Shape_Leng": 2639.9999325399999, "SVI": 4, "TIRZ": "Sunnyside", "MD": "HCID #10A", "Shape__Length": 2639.9999325425229 }, "geometry": { "type": "LineString", "coordinates": [ [ -95.355645409227265, 29.668278826800421 ], [ -95.355638672250606, 29.667946895101725 ], [ -95.355647040274491, 29.667480052920794 ], [ -95.355626841386794, 29.666743659113678 ], [ -95.355605738019548, 29.66603261431575 ], [ -95.355595969389242, 29.665335410221353 ], [ -95.355578674181359, 29.664360701108823 ], [ -95.355536096569764, 29.663284622473356 ], [ -95.355548206012301, 29.6624471202534 ], [ -95.355533325563741, 29.662212826410006 ], [ -95.355513898891672, 29.661306699276949 ], [ -95.355506882363073, 29.661020645976322 ] ] } },
{ "type": "Feature", "properties": { "FID": 16, "OBJECTID": 215, "RegionalRo": "DUNVALE RD", "Regional_1": "28364", "Regional_2": 0.49999999987900001, "BenSummary": 5, "BenSumma_1": 2, "BenSumma_2": 0, "BenSumma_3": 3, "BenSumma_4": 2, "BenSumma_5": 1, "BenSumma_6": 0, "BenSumma_7": 1, "TotalCrash": 10.0000000024, "VehCrashRa": 6.0000000014500001, "PedCrashRa": 4.0000000009700001, "BikeCrashR": 0.0, "Shape_Leng": 2639.9999993599999, "SVI": 0, "TIRZ": " ", "MD": " ", "Shape__Length": 2639.9999993602196 }, "geometry": { "type": "LineString", "coordinates": [ [ -95.51407124035363, 29.730192902123036 ], [ -95.514062171782115, 29.729878585332813 ], [ -95.514058834315023, 29.729302685413195 ], [ -95.514057579842486, 29.729018079198763 ], [ -95.514053881543916, 29.728179944591894 ], [ -95.514053984518497, 29.727873070270952 ], [ -95.514040925726277, 29.727357177342668 ], [ -95.514021284280801, 29.726697158976268 ], [ -95.514020592623268, 29.726492926612309 ], [ -95.514021727184328, 29.725821574516033 ], [ -95.514016631975977, 29.725752819536432 ], [ -95.514023879830219, 29.725650996177087 ], [ -95.514020336289207, 29.725278008476046 ], [ -95.514015685904781, 29.724788234382274 ], [ -95.514006942770905, 29.72457112380609 ], [ -95.513980613842989, 29.723917323385365 ], [ -95.513976271026692, 29.723144518475035 ], [ -95.513969006456165, 29.722934293714562 ] ] } },
{ "type": "Feature", "properties": { "FID": 17, "OBJECTID": 228, "RegionalRo": "E LITTLE YORK RD", "Regional_1": "29299", "Regional_2": 0.27864338042100001, "BenSummary": 5, "BenSumma_1": 1, "BenSumma_2": 0, "BenSumma_3": 4, "BenSumma_4": 2, "BenSumma_5": 0, "BenSumma_6": 0, "BenSumma_7": 2, "TotalCrash": 17.944083194899999, "VehCrashRa": 14.355266556, "PedCrashRa": 3.58881663899, "BikeCrashR": 0.0, "Shape_Leng": 1471.23704862, "SVI": 1, "TIRZ": " ", "MD": "Greater Northside", "Shape__Length": 1471.2370486235754 }, "geometry": { "type": "LineString", "coordinates": [ [ -95.389498405860948, 29.869987162363163 ], [ -95.388735930662463, 29.869991874840295 ], [ -95.388534359348284, 29.869992303618861 ], [ -95.386647330906513, 29.870015156594924 ], [ -95.385912507644932, 29.870022682055726 ], [ -95.385602229206654, 29.87003308798527 ], [ -95.385497972788968, 29.870041101421243 ], [ -95.385336601485335, 29.870044828152036 ], [ -95.385229040020846, 29.870046775085296 ], [ -95.385153012637218, 29.870047955985022 ], [ -95.384857354059463, 29.870050052778666 ] ] } },
{ "type": "Feature", "properties": { "FID": 18, "OBJECTID": 268, "RegionalRo": "FM 1960", "Regional_1": "35625", "Regional_2": 0.49999998224999997, "BenSummary": 6, "BenSumma_1": 1, "BenSumma_2": 0, "BenSumma_3": 5, "BenSumma_4": 2, "BenSumma_5": 0, "BenSumma_6": 0, "BenSumma_7": 2, "TotalCrash": 12.000000426, "VehCrashRa": 10.000000354999999, "PedCrashRa": 2.0000000710000001, "BikeCrashR": 0.0, "Shape_Leng": 2639.9999062799998, "SVI": 0, "TIRZ": " ", "MD": " ", "Shape__Length": 2639.9999062809729 }, "geometry": { "type": "LineString", "coordinates": [ [ -95.330306668078549, 30.011423315756463 ], [ -95.330107637675454, 30.011385291032347 ], [ -95.329181599611871, 30.011082717795169 ], [ -95.323818014368896, 30.009004976786663 ], [ -95.32265105293078, 30.008552881186354 ] ] } },
{ "type": "Feature", "properties": { "FID": 19, "OBJECTID": 269, "RegionalRo": "FM 1960", "Regional_1": "35630", "Regional_2": 0.38110824220700001, "BenSummary": 13, "BenSumma_1": 6, "BenSumma_2": 0, "BenSumma_3": 7, "BenSumma_4": 5, "BenSumma_5": 3, "BenSumma_6": 0, "BenSumma_7": 2, "TotalCrash": 34.111043951, "VehCrashRa": 18.367485204400001, "PedCrashRa": 15.7435587466, "BikeCrashR": 0.0, "Shape_Leng": 2012.2515188499999, "SVI": 0, "TIRZ": " ", "MD": " ", "Shape__Length": 2012.2515188531484 }, "geometry": { "type": "LineString", "coordinates": [ [ -95.428843630840362, 30.021329360715502 ], [ -95.428316438120675, 30.021482744765585 ], [ -95.428220135571493, 30.021510762971754 ], [ -95.423168034804846, 30.023015264405895 ], [ -95.422816761616886, 30.023089123519739 ] ] } },
{ "type": "Feature", "properties": { "FID": 20, "OBJECTID": 273, "RegionalRo": "FM 1960 E", "Regional_1": "35652", "Regional_2": 0.500000035106, "BenSummary": 6, "BenSumma_1": 1, "BenSumma_2": 1, "BenSumma_3": 4, "BenSumma_4": 2, "BenSumma_5": 1, "BenSumma_6": 0, "BenSumma_7": 1, "TotalCrash": 11.9999991575, "VehCrashRa": 7.9999994383099997, "PedCrashRa": 1.9999998595799999, "BikeCrashR": 1.9999998595799999, "Shape_Leng": 2640.0001853600002, "SVI": 5, "TIRZ": " ", "MD": " ", "Shape__Length": 2640.0001853608123 }, "geometry": { "type": "LineString", "coordinates": [ [ -95.23620103805429, 29.99930527488798 ], [ -95.236098569417123, 29.999306978929251 ], [ -95.235546627578373, 29.999354043423548 ], [ -95.234047654880825, 29.999389521963511 ], [ -95.230561186951036, 29.99940377014067 ], [ -95.227991479222723, 29.99941851090917 ], [ -95.227864044095014, 29.999418472223645 ] ] } },
{ "type": "Feature", "properties": { "FID": 21, "OBJECTID": 282, "RegionalRo": "FONDREN RD", "Regional_1": "36258", "Regional_2": 0.49999998773100002, "BenSummary": 11, "BenSumma_1": 1, "BenSumma_2": 0, "BenSumma_3": 10, "BenSumma_4": 2, "BenSumma_5": 0, "BenSumma_6": 0, "BenSumma_7": 2, "TotalCrash": 22.000000539799998, "VehCrashRa": 20.000000490800002, "PedCrashRa": 2.0000000490800001, "BikeCrashR": 0.0, "Shape_Leng": 2639.9999352200002, "SVI": 0, "TIRZ": "Hiram Clarke/FB Houston", "MD": "HCID #10B (Five Corners)", "Shape__Length": 2639.9999352052273 }, "geometry": { "type": "LineString", "coordinates": [ [ -95.507545393515613, 29.623551531035787 ], [ -95.50759854681246, 29.623186736475098 ], [ -95.507851585010854, 29.622276582657829 ], [ -95.508142246439505, 29.621363500630697 ], [ -95.508232156393419, 29.621024426833213 ], [ -95.5083526458303, 29.620644601171485 ], [ -95.508407780496483, 29.620470798890196 ], [ -95.508506711739429, 29.62015893195278 ], [ -95.508612371813442, 29.619818594383066 ], [ -95.508743537346632, 29.619323327748624 ], [ -95.508760624163159, 29.619208864105463 ], [ -95.508915037836161, 29.618174678118699 ], [ -95.509013175954408, 29.616755628374506 ], [ -95.509028578297745, 29.616434922638778 ] ] } },
{ "type": "Feature", "properties": { "FID": 22, "OBJECTID": 287, "RegionalRo": "FONDREN RD", "Regional_1": "36266", "Regional_2": 0.49999997082300002, "BenSummary": 6, "BenSumma_1": 1, "BenSumma_2": 1, "BenSumma_3": 4, "BenSumma_4": 4, "BenSumma_5": 0, "BenSumma_6": 1, "BenSumma_7": 3, "TotalCrash": 12.000000700299999, "VehCrashRa": 8.0000004668300004, "PedCrashRa": 2.0000001167099999, "BikeCrashR": 2.0000001167099999, "Shape_Leng": 2639.9998459399999, "SVI": 1, "TIRZ": "Southwest Houston", "MD": "HCID #5 (Brays Oaks)", "Shape__Length": 2639.9998459605877 }, "geometry": { "type": "LineString", "coordinates": [ [ -95.508713842820242, 29.681544774311345 ], [ -95.508713667048497, 29.681480087436221 ], [ -95.508703403262047, 29.680656557059113 ], [ -95.508703039252211, 29.680450618119611 ], [ -95.508688409284517, 29.679648459521243 ], [ -95.508661259623565, 29.678704650351833 ], [ -95.508668810497284, 29.678359970442834 ], [ -95.508666650579698, 29.677486195076337 ], [ -95.508648054804397, 29.676771342725896 ], [ -95.508640988596682, 29.676171993921777 ], [ -95.508634808974335, 29.67562615852572 ], [ -95.508622962555734, 29.674893620102164 ], [ -95.508616249126547, 29.674532763306889 ], [ -95.508611649366159, 29.674285505599894 ] ] } },
{ "type": "Feature", "properties": { "FID": 23, "OBJECTID": 299, "RegionalRo": "FREEPORT BLVD", "Regional_1": "37436", "Regional_2": 0.49999995699700001, "BenSummary": 5, "BenSumma_1": 3, "BenSumma_2": 1, "BenSumma_3": 1, "BenSumma_4": 3, "BenSumma_5": 2, "BenSumma_6": 1, "BenSumma_7": 0, "TotalCrash": 10.0000008601, "VehCrashRa": 2.00000017201, "PedCrashRa": 6.0000005160300001, "BikeCrashR": 2.00000017201, "Shape_Leng": 2639.9997729500001, "SVI": 1, "TIRZ": " ", "MD": " ", "Shape__Length": 2639.9997729611741 }, "geometry": { "type": "LineString", "coordinates": [ [ -95.177991107438487, 29.777749749763331 ], [ -95.177993003445437, 29.777615324557807 ], [ -95.17797761591514, 29.776902602128111 ], [ -95.177970148473023, 29.776785373660434 ], [ -95.177958479680001, 29.776128468728775 ], [ -95.177961557663039, 29.775825988141907 ], [ -95.177965769174492, 29.775383058376256 ], [ -95.177928242509779, 29.774634856741628 ], [ -95.177898166120883, 29.773916432070116 ], [ -95.17789183094439, 29.773174543188791 ], [ -95.177868664148335, 29.772431101659883 ], [ -95.17786052294224, 29.77166012976874 ], [ -95.177867006459891, 29.770970834158241 ], [ -95.177856612468062, 29.770733465062662 ], [ -95.177846047278749, 29.770492078515481 ] ] } },
{ "type": "Feature", "properties": { "FID": 24, "OBJECTID": 325, "RegionalRo": "GESSNER RD", "Regional_1": "38884", "Regional_2": 0.50000007068999996, "BenSummary": 6, "BenSumma_1": 2, "BenSumma_2": 0, "BenSumma_3": 4, "BenSumma_4": 2, "BenSumma_5": 0, "BenSumma_6": 0, "BenSumma_7": 2, "TotalCrash": 11.9999983034, "VehCrashRa": 7.9999988689599997, "PedCrashRa": 3.9999994344799998, "BikeCrashR": 0.0, "Shape_Leng": 2640.00037324, "SVI": 0, "TIRZ": "Memorial City", "MD": "Memorial City", "Shape__Length": 2640.0003732403152 }, "geometry": { "type": "LineString", "coordinates": [ [ -95.544489617511601, 29.779144138516578 ], [ -95.544500056510174, 29.779648206243429 ], [ -95.544489232813632, 29.779967676877575 ], [ -95.544449314377417, 29.780520370981769 ], [ -95.544361377909468, 29.780944145910883 ], [ -95.544318662469621, 29.781097673338106 ], [ -95.544196796022291, 29.781602324490645 ], [ -95.54402504065925, 29.782193954501857 ], [ -95.544003832070388, 29.782521658005894 ], [ -95.54397713119512, 29.782848225171275 ], [ -95.543980764387328, 29.783509649372366 ], [ -95.543981568086636, 29.783716475593696 ], [ -95.543980310173865, 29.783907343584605 ], [ -95.543972115721147, 29.784106596759447 ], [ -95.543968223267697, 29.784201248871096 ], [ -95.543968120189163, 29.784208413011541 ], [ -95.543966645664696, 29.784310218445601 ], [ -95.543963738409531, 29.784510824660064 ], [ -95.543980925250963, 29.7850758354395 ], [ -95.543996739964086, 29.785454554384721 ], [ -95.544011041427055, 29.785750170748713 ], [ -95.544047651469057, 29.786358570054372 ] ] } },
{ "type": "Feature", "properties": { "FID": 25, "OBJECTID": 366, "RegionalRo": "HEMPSTEAD RD", "Regional_1": "44616", "Regional_2": 0.499999991443, "BenSummary": 5, "BenSumma_1": 1, "BenSumma_2": 1, "BenSumma_3": 3, "BenSumma_4": 3, "BenSumma_5": 1, "BenSumma_6": 0, "BenSumma_7": 2, "TotalCrash": 10.0000001711, "VehCrashRa": 6.0000001026899996, "PedCrashRa": 2.0000000342300002, "BikeCrashR": 2.0000000342300002, "Shape_Leng": 2639.9999548199999, "SVI": 1, "TIRZ": " ", "MD": "Spring Branch", "Shape__Length": 2639.999954825882 }, "geometry": { "type": "LineString", "coordinates": [ [ -95.482173143225594, 29.817555445873356 ], [ -95.483265583508384, 29.818336195610716 ], [ -95.485259359139363, 29.819774489173611 ], [ -95.487167395949427, 29.821108468639739 ], [ -95.488602705536209, 29.822167158524472 ] ] } },
{ "type": "Feature", "properties": { "FID": 26, "OBJECTID": 373, "RegionalRo": "HILLCROFT AVE", "Regional_1": "45807", "Regional_2": 0.49999998697699999, "BenSummary": 18, "BenSumma_1": 10, "BenSumma_2": 1, "BenSumma_3": 7, "BenSumma_4": 2, "BenSumma_5": 2, "BenSumma_6": 0, "BenSumma_7": 0, "TotalCrash": 36.000000937700001, "VehCrashRa": 14.0000003647, "PedCrashRa": 20.000000520899999, "BikeCrashR": 2.0000000520899999, "Shape_Leng": 2639.99993124, "SVI": 1, "TIRZ": "Southwest Houston", "MD": "Sharpstown", "Shape__Length": 2639.9999312563573 }, "geometry": { "type": "LineString", "coordinates": [ [ -95.49388813356201, 29.711993695481411 ], [ -95.493784088479018, 29.711859754549902 ], [ -95.493435072627804, 29.711275507834166 ], [ -95.49327967711352, 29.710831445500776 ], [ -95.4931431979888, 29.710183473209245 ], [ -95.493121076763529, 29.709057213012805 ], [ -95.493093228273537, 29.708180138833864 ], [ -95.493082561664096, 29.70726605797017 ], [ -95.493066724587891, 29.706392745999544 ], [ -95.493050105471028, 29.705452646068842 ], [ -95.493046236306412, 29.704868034104379 ] ] } },
{ "type": "Feature", "properties": { "FID": 27, "OBJECTID": 376, "RegionalRo": "HILLCROFT AVE", "Regional_1": "45810", "Regional_2": 0.499999965539, "BenSummary": 5, "BenSumma_1": 4, "BenSumma_2": 0, "BenSumma_3": 1, "BenSumma_4": 2, "BenSumma_5": 2, "BenSumma_6": 0, "BenSumma_7": 0, "TotalCrash": 10.0000006892, "VehCrashRa": 2.0000001378399999, "PedCrashRa": 8.0000005513799994, "BikeCrashR": 0.0, "Shape_Leng": 2639.9998180500002, "SVI": 2, "TIRZ": "St. George Place", "MD": " ", "Shape__Length": 2639.9998180453977 }, "geometry": { "type": "LineString", "coordinates": [ [ -95.501180416734286, 29.731404151952596 ], [ -95.501159918468659, 29.730462931952619 ], [ -95.501156257568965, 29.729633127833281 ], [ -95.501155101283317, 29.729370655959574 ], [ -95.5011539097286, 29.72910037528208 ], [ -95.501151631111583, 29.728583520913094 ], [ -95.501149499734737, 29.728100256776486 ], [ -95.5011445424756, 29.727430302621659 ], [ -95.501133644683719, 29.72681371363279 ], [ -95.501107886058534, 29.72574194733059 ], [ -95.50109786033066, 29.725484530286714 ], [ -95.501073876010864, 29.724582090935936 ], [ -95.501068255439819, 29.724374154492168 ], [ -95.501065402364063, 29.724145042076859 ] ] } },
{ "type": "Feature", "properties": { "FID": 28, "OBJECTID": 450, "RegionalRo": "LITTLE YORK RD", "Regional_1": "57355", "Regional_2": 0.50000009357300002, "BenSummary": 6, "BenSumma_1": 1, "BenSumma_2": 0, "BenSumma_3": 5, "BenSumma_4": 3, "BenSumma_5": 0, "BenSumma_6": 0, "BenSumma_7": 3, "TotalCrash": 11.999997754300001, "VehCrashRa": 9.9999981285500006, "PedCrashRa": 1.9999996257099999, "BikeCrashR": 0.0, "Shape_Leng": 2640.0004940600002, "SVI": 0, "TIRZ": " ", "MD": "Greater Northside", "Shape__Length": 2640.0004940643762 }, "geometry": { "type": "LineString", "coordinates": [ [ -95.384857354059463, 29.870050052778666 ], [ -95.383777048122255, 29.870046385217904 ], [ -95.382823372750877, 29.870058871484012 ], [ -95.380010420863968, 29.870107743424455 ], [ -95.379510740006282, 29.870107417722394 ], [ -95.378601479229005, 29.87011779977972 ], [ -95.377703777161599, 29.870128471553549 ], [ -95.376844331430661, 29.870142863173346 ], [ -95.376528682255284, 29.870148108815783 ] ] } },
{ "type": "Feature", "properties": { "FID": 29, "OBJECTID": 456, "RegionalRo": "LOCKWOOD DR", "Regional_1": "57702", "Regional_2": 0.49999997411000002, "BenSummary": 7, "BenSumma_1": 2, "BenSumma_2": 0, "BenSumma_3": 5, "BenSumma_4": 4, "BenSumma_5": 1, "BenSumma_6": 0, "BenSumma_7": 3, "TotalCrash": 14.0000007249, "VehCrashRa": 10.0000005178, "PedCrashRa": 4.0000002071200003, "BikeCrashR": 0.0, "Shape_Leng": 2639.9998633, "SVI": 2, "TIRZ": " ", "MD": " ", "Shape__Length": 2639.9998633156893 }, "geometry": { "type": "LineString", "coordinates": [ [ -95.317125720473101, 29.810688036899176 ], [ -95.317129781857176, 29.811046088893772 ], [ -95.317150442595974, 29.812319740915932 ], [ -95.317172313131863, 29.813532836080171 ], [ -95.317304046669989, 29.815090090939631 ], [ -95.317356203573013, 29.815643591498201 ], [ -95.317361006880333, 29.815694563309151 ], [ -95.317514748320477, 29.816581901603719 ], [ -95.317498452625429, 29.817118392072324 ], [ -95.317523227530927, 29.81724337572237 ], [ -95.317585537288721, 29.81755769504127 ], [ -95.317703599952893, 29.817909864240722 ] ] } },
{ "type": "Feature", "properties": { "FID": 30, "OBJECTID": 488, "RegionalRo": "MAIN ST", "Regional_1": "59916", "Regional_2": 0.49999993636099999, "BenSummary": 5, "BenSumma_1": 2, "BenSumma_2": 0, "BenSumma_3": 3, "BenSumma_4": 2, "BenSumma_5": 1, "BenSumma_6": 0, "BenSumma_7": 1, "TotalCrash": 10.000001272800001, "VehCrashRa": 6.0000007636700001, "PedCrashRa": 4.0000005091100004, "BikeCrashR": 0.0, "Shape_Leng": 2639.99966399, "SVI": 0, "TIRZ": "Market Square", "MD": "Houston Downtown/Midtown", "Shape__Length": 2639.999663999768 }, "geometry": { "type": "LineString", "coordinates": [ [ -95.368346976885235, 29.752637423018928 ], [ -95.368467721951518, 29.752484097191125 ], [ -95.369053981398039, 29.751730915006128 ], [ -95.369145401526453, 29.751619498232429 ], [ -95.36965239262652, 29.750987661281698 ], [ -95.370244981185891, 29.750229702522187 ], [ -95.370817226699629, 29.749482884258686 ], [ -95.370947015507113, 29.74931976085038 ], [ -95.37103823837738, 29.749205103220067 ], [ -95.371417263860948, 29.748728716662399 ], [ -95.372018046784476, 29.748007459911033 ], [ -95.372606710377937, 29.747257742555426 ], [ -95.373073709085034, 29.746663376807785 ] ] } },
{ "type": "Feature", "properties": { "FID": 31, "OBJECTID": 494, "RegionalRo": "MARTIN LUTHER KING BLVD", "Regional_1": "61118", "Regional_2": 0.49999997093600002, "BenSummary": 6, "BenSumma_1": 1, "BenSumma_2": 1, "BenSumma_3": 4, "BenSumma_4": 3, "BenSumma_5": 1, "BenSumma_6": 1, "BenSumma_7": 1, "TotalCrash": 12.000000697500001, "VehCrashRa": 8.0000004650199994, "PedCrashRa": 2.0000001162499998, "BikeCrashR": 2.0000001162499998, "Shape_Leng": 2639.9998465399999, "SVI": 2, "TIRZ": "O.S.T./Almeda", "MD": "Greater Southeast/HCID #10A", "Shape__Length": 2639.9998465300773 }, "geometry": { "type": "LineString", "coordinates": [ [ -95.340900944644105, 29.687443003141283 ], [ -95.341036053663913, 29.687122848593827 ], [ -95.3411298396299, 29.686788663446379 ], [ -95.341131319800255, 29.686421342903952 ], [ -95.341035751971503, 29.685990142566666 ], [ -95.340941074869292, 29.685707255161383 ], [ -95.340883352121736, 29.68553478738227 ], [ -95.340782407806643, 29.685233185444762 ], [ -95.340599462765567, 29.684794494581169 ], [ -95.340313760948888, 29.684061445135235 ], [ -95.340051909446785, 29.683339785213445 ], [ -95.339755737591616, 29.682608859874438 ], [ -95.339461402610596, 29.681879208801551 ], [ -95.339110434867862, 29.681159542945991 ], [ -95.338676691906386, 29.68063079317092 ] ] } },
{ "type": "Feature", "properties": { "FID": 32, "OBJECTID": 496, "RegionalRo": "MAXEY RD", "Regional_1": "61490", "Regional_2": 0.41114138668700001, "BenSummary": 5, "BenSumma_1": 3, "BenSumma_2": 0, "BenSumma_3": 2, "BenSumma_4": 2, "BenSumma_5": 1, "BenSumma_6": 0, "BenSumma_7": 1, "TotalCrash": 12.1612665665, "VehCrashRa": 4.8645066265799999, "PedCrashRa": 7.2967599398700003, "BikeCrashR": 0.0, "Shape_Leng": 2170.8265217100002, "SVI": 1, "TIRZ": " ", "MD": " ", "Shape__Length": 2170.8265217206922 }, "geometry": { "type": "LineString", "coordinates": [ [ -95.218492039704984, 29.776573543463037 ], [ -95.218490758739833, 29.776525204786118 ], [ -95.218273532514644, 29.775837677873874 ], [ -95.218261898903847, 29.775451366113085 ], [ -95.21844761026847, 29.77527552241045 ], [ -95.218422451520055, 29.774279608656432 ], [ -95.21841756902019, 29.773970743923087 ], [ -95.218407279449764, 29.773444943177587 ], [ -95.218387661585524, 29.772919738484177 ], [ -95.218354195056634, 29.771169024919743 ], [ -95.218348759695999, 29.770693712465103 ] ] } },
{ "type": "Feature", "properties": { "FID": 33, "OBJECTID": 508, "RegionalRo": "MESA DR", "Regional_1": "63080", "Regional_2": 0.50000001622599999, "BenSummary": 7, "BenSumma_1": 2, "BenSumma_2": 0, "BenSumma_3": 5, "BenSumma_4": 2, "BenSumma_5": 1, "BenSumma_6": 0, "BenSumma_7": 1, "TotalCrash": 13.9999995457, "VehCrashRa": 9.9999996754799998, "PedCrashRa": 3.9999998701899999, "BikeCrashR": 0.0, "Shape_Leng": 2640.0000856699999, "SVI": 2, "TIRZ": "Leland Woods", "MD": " ", "Shape__Length": 2640.0000856585289 }, "geometry": { "type": "LineString", "coordinates": [ [ -95.262382144797016, 29.851822024538976 ], [ -95.262393725577255, 29.852509815629677 ], [ -95.262388802910408, 29.852875060346427 ], [ -95.262385604477444, 29.853512911775592 ], [ -95.262397094491831, 29.854944978084628 ], [ -95.262399757234334, 29.855181663930882 ], [ -95.262405791621816, 29.855718239309375 ], [ -95.262413777603953, 29.856428192750993 ], [ -95.262419943403756, 29.856976520688953 ], [ -95.262422783097605, 29.857856640127736 ], [ -95.262417141501928, 29.858723882046387 ], [ -95.262422286680433, 29.859081556131205 ] ] } },
{ "type": "Feature", "properties": { "FID": 34, "OBJECTID": 544, "RegionalRo": "N SHEPHERD DR", "Regional_1": "67817", "Regional_2": 0.49999994822900001, "BenSummary": 5, "BenSumma_1": 1, "BenSumma_2": 0, "BenSumma_3": 4, "BenSumma_4": 2, "BenSumma_5": 0, "BenSumma_6": 0, "BenSumma_7": 2, "TotalCrash": 10.0000010354, "VehCrashRa": 8.0000008283300001, "PedCrashRa": 2.0000002070799998, "BikeCrashR": 0.0, "Shape_Leng": 2639.99972665, "SVI": 1, "TIRZ": " ", "MD": " ", "Shape__Length": 2639.9997266353362 }, "geometry": { "type": "LineString", "coordinates": [ [ -95.41091265391664, 29.841929173117766 ], [ -95.410919144128485, 29.84221836960668 ], [ -95.41092520697913, 29.842953785642717 ], [ -95.410955358312094, 29.843831923537945 ], [ -95.41096166272655, 29.844112877436547 ], [ -95.410975123689596, 29.845436521891951 ], [ -95.41111650077292, 29.847158714914336 ], [ -95.41120136375983, 29.847650765509254 ], [ -95.411533576295255, 29.849150800945466 ] ] } },
{ "type": "Feature", "properties": { "FID": 35, "OBJECTID": 572, "RegionalRo": "OLD SPANISH TRL", "Regional_1": "71436", "Regional_2": 0.49999997909999999, "BenSummary": 5, "BenSumma_1": 1, "BenSumma_2": 0, "BenSumma_3": 4, "BenSumma_4": 2, "BenSumma_5": 1, "BenSumma_6": 0, "BenSumma_7": 1, "TotalCrash": 10.000000418000001, "VehCrashRa": 8.0000003343999992, "PedCrashRa": 2.0000000835999998, "BikeCrashR": 0.0, "Shape_Leng": 2639.9998896500001, "SVI": 1, "TIRZ": "O.S.T./Almeda", "MD": "Greater Southeast", "Shape__Length": 2639.9998896660445 }, "geometry": { "type": "LineString", "coordinates": [ [ -95.361302974326108, 29.702178602489028 ], [ -95.361297034365023, 29.702178945691877 ], [ -95.360316559762538, 29.702252039580994 ], [ -95.359441532119391, 29.702296045211526 ], [ -95.358539859256226, 29.70235262706753 ], [ -95.358140238904596, 29.702387483639306 ], [ -95.357317813794438, 29.702424655436211 ], [ -95.354894306203377, 29.70255333202962 ], [ -95.353974974842998, 29.702616878667687 ], [ -95.35350368011953, 29.702666449855279 ], [ -95.35317834681274, 29.702703460713899 ], [ -95.353013335338289, 29.702728337681343 ] ] } },
{ "type": "Feature", "properties": { "FID": 36, "OBJECTID": 607, "RegionalRo": "RANKIN RD", "Regional_1": "79326", "Regional_2": 0.50000011828400004, "BenSummary": 7, "BenSumma_1": 4, "BenSumma_2": 0, "BenSumma_3": 3, "BenSumma_4": 3, "BenSumma_5": 1, "BenSumma_6": 0, "BenSumma_7": 2, "TotalCrash": 13.999996688, "VehCrashRa": 5.9999985805899998, "PedCrashRa": 7.9999981074599997, "BikeCrashR": 0.0, "Shape_Leng": 2640.00062454, "SVI": 2, "TIRZ": "Greenspoint", "MD": "Greater Greenspoint", "Shape__Length": 2640.0006245415088 }, "geometry": { "type": "LineString", "coordinates": [ [ -95.419540914251385, 29.965591058120147 ], [ -95.419244933406858, 29.965601128021152 ], [ -95.419030700096712, 29.965608415835852 ], [ -95.418802072574294, 29.965616193122425 ], [ -95.418572442386932, 29.96562400555672 ], [ -95.418107917126179, 29.96559030449016 ], [ -95.417636935417775, 29.965611469927129 ], [ -95.417391117429815, 29.965630025325144 ], [ -95.417073041662718, 29.965652930674619 ], [ -95.415261092291459, 29.965786041149951 ], [ -95.414110477429247, 29.965807452404711 ], [ -95.412464348611181, 29.965813639929387 ], [ -95.41205160183857, 29.965821334229069 ], [ -95.411215352090977, 29.96583692346405 ] ] } },
{ "type": "Feature", "properties": { "FID": 37, "OBJECTID": 631, "RegionalRo": "S BRAESWOOD BLVD", "Regional_1": "84614", "Regional_2": 0.50000002403900001, "BenSummary": 5, "BenSumma_1": 1, "BenSumma_2": 1, "BenSumma_3": 3, "BenSumma_4": 3, "BenSumma_5": 1, "BenSumma_6": 1, "BenSumma_7": 1, "TotalCrash": 9.9999995192100002, "VehCrashRa": 5.9999997115300001, "PedCrashRa": 1.99999990384, "BikeCrashR": 1.99999990384, "Shape_Leng": 2640.0001269300001, "SVI": 5, "TIRZ": "Southwest Houston", "MD": "HCID #5 (Brays Oaks)", "Shape__Length": 2640.0001269250151 }, "geometry": { "type": "LineString", "coordinates": [ [ -95.501647317458392, 29.677034453966971 ], [ -95.501736330599897, 29.67702050400889 ], [ -95.502567048253937, 29.676888456782315 ], [ -95.503136819966784, 29.676729875271032 ], [ -95.503246425620546, 29.676693312665599 ], [ -95.50336943035019, 29.676661044513462 ], [ -95.50353687527975, 29.676597996375314 ], [ -95.504967353575751, 29.676038100008025 ], [ -95.504995796540456, 29.676026967173904 ], [ -95.505440514976655, 29.675890894961423 ], [ -95.506097744155085, 29.675753134255334 ], [ -95.506954569457974, 29.675649340163087 ], [ -95.507749918813673, 29.675626727656528 ], [ -95.508634808974335, 29.67562615852572 ], [ -95.509696029262841, 29.675609448351391 ] ] } },
{ "type": "Feature", "properties": { "FID": 38, "OBJECTID": 638, "RegionalRo": "S DAIRY ASHFORD RD", "Regional_1": "84809", "Regional_2": 0.49999999892199998, "BenSummary": 5, "BenSumma_1": 1, "BenSumma_2": 0, "BenSumma_3": 4, "BenSumma_4": 2, "BenSumma_5": 1, "BenSumma_6": 0, "BenSumma_7": 1, "TotalCrash": 10.0000000216, "VehCrashRa": 8.0000000172500005, "PedCrashRa": 2.0000000043099999, "BikeCrashR": 0.0, "Shape_Leng": 2639.9999943100001, "SVI": 4, "TIRZ": " ", "MD": "International", "Shape__Length": 2639.9999943070379 }, "geometry": { "type": "LineString", "coordinates": [ [ -95.604392612025691, 29.696146950892444 ], [ -95.604389873998244, 29.695990478664491 ], [ -95.604382791619841, 29.69583214697894 ], [ -95.604383885354579, 29.695551813129828 ], [ -95.604359379978902, 29.694803564068014 ], [ -95.604347210453156, 29.694055626750522 ], [ -95.604324361368441, 29.693347639587984 ], [ -95.604307501259655, 29.692650721443442 ], [ -95.604310892755649, 29.691519282194911 ], [ -95.604289857539342, 29.690510118826989 ], [ -95.604257181135154, 29.688942549859128 ], [ -95.604256368635234, 29.688888192774382 ] ] } },
{ "type": "Feature", "properties": { "FID": 39, "OBJECTID": 642, "RegionalRo": "S DAIRY ASHFORD RD", "Regional_1": "84815", "Regional_2": 0.50000000300000003, "BenSummary": 6, "BenSumma_1": 4, "BenSumma_2": 0, "BenSumma_3": 2, "BenSumma_4": 2, "BenSumma_5": 2, "BenSumma_6": 0, "BenSumma_7": 0, "TotalCrash": 11.999999927999999, "VehCrashRa": 3.9999999759999998, "PedCrashRa": 7.9999999519999996, "BikeCrashR": 0.0, "Shape_Leng": 2640.0000158399998, "SVI": 0, "TIRZ": " ", "MD": " ", "Shape__Length": 2640.000015825834 }, "geometry": { "type": "LineString", "coordinates": [ [ -95.605914306152741, 29.739612153529631 ], [ -95.605911188742255, 29.739078818456544 ], [ -95.605908323335242, 29.73860149346492 ], [ -95.605888947099189, 29.738032875521821 ], [ -95.6058388959149, 29.736178188249209 ], [ -95.60583001364472, 29.735521151768825 ], [ -95.605812697339445, 29.735002288157098 ], [ -95.605806965836251, 29.734721489232157 ], [ -95.605796232678458, 29.733770290153529 ], [ -95.60579262269097, 29.733642363574226 ], [ -95.605784818311903, 29.733183949840225 ], [ -95.605777045469608, 29.732620836709518 ], [ -95.605772331612599, 29.732353383321886 ] ] } },
{ "type": "Feature", "properties": { "FID": 40, "OBJECTID": 648, "RegionalRo": "S GESSNER RD", "Regional_1": "85025", "Regional_2": 0.49999997644499999, "BenSummary": 10, "BenSumma_1": 6, "BenSumma_2": 1, "BenSumma_3": 3, "BenSumma_4": 3, "BenSumma_5": 2, "BenSumma_6": 0, "BenSumma_7": 1, "TotalCrash": 20.0000009422, "VehCrashRa": 6.0000002826600003, "PedCrashRa": 12.000000565300001, "BikeCrashR": 2.0000000942199998, "Shape_Leng": 2639.9998756300001, "SVI": 4, "TIRZ": "Southwest Houston", "MD": "Sharpstown", "Shape__Length": 2639.9998756166187 }, "geometry": { "type": "LineString", "coordinates": [ [ -95.538936250373439, 29.715994944351095 ], [ -95.538953804628505, 29.71548301474202 ], [ -95.538926778650634, 29.714637177397172 ], [ -95.538934786492433, 29.714487091483761 ], [ -95.538931572920248, 29.71363170282703 ], [ -95.538920077695337, 29.712700975169579 ], [ -95.538916757378928, 29.712538518240173 ], [ -95.538893644223251, 29.711407889562196 ], [ -95.538881345068503, 29.710836593969205 ], [ -95.53886725758872, 29.710301663628094 ], [ -95.538848373574027, 29.70962312030349 ], [ -95.538838969840413, 29.709330273223934 ], [ -95.53882911053681, 29.708955822063668 ], [ -95.538800412173686, 29.708737908064961 ] ] } },
{ "type": "Feature", "properties": { "FID": 41, "OBJECTID": 665, "RegionalRo": "S POST OAK RD", "Regional_1": "85590", "Regional_2": 0.49999998336200002, "BenSummary": 7, "BenSumma_1": 2, "BenSumma_2": 0, "BenSumma_3": 5, "BenSumma_4": 2, "BenSumma_5": 0, "BenSumma_6": 0, "BenSumma_7": 2, "TotalCrash": 14.000000465899999, "VehCrashRa": 10.000000332799999, "PedCrashRa": 4.0000001331000004, "BikeCrashR": 0.0, "Shape_Leng": 2639.99991215, "SVI": 0, "TIRZ": "Hiram Clarke/FB Houston", "MD": "HCID #10B (Five Corners)", "Shape__Length": 2639.9999121522719 }, "geometry": { "type": "LineString", "coordinates": [ [ -95.463729166134939, 29.646520181145526 ], [ -95.463699658647499, 29.644124764156675 ], [ -95.4637024851409, 29.643561396562937 ], [ -95.463572379370376, 29.640807442904368 ], [ -95.463567277846835, 29.639262433605158 ] ] } },
{ "type": "Feature", "properties": { "FID": 42, "OBJECTID": 699, "RegionalRo": "SH 6 S", "Regional_1": "89194", "Regional_2": 0.50000000927400001, "BenSummary": 8, "BenSumma_1": 2, "BenSumma_2": 0, "BenSumma_3": 6, "BenSumma_4": 2, "BenSumma_5": 2, "BenSumma_6": 0, "BenSumma_7": 0, "TotalCrash": 15.9999997032, "VehCrashRa": 11.999999777399999, "PedCrashRa": 3.9999999258100001, "BikeCrashR": 0.0, "Shape_Leng": 2640.0000489700001, "SVI": 0, "TIRZ": " ", "MD": " ", "Shape__Length": 2640.000048980176 }, "geometry": { "type": "LineString", "coordinates": [ [ -95.643941130184913, 29.727372459382714 ], [ -95.643943757625593, 29.726761108898902 ], [ -95.64393386826184, 29.725984187367697 ], [ -95.643943358130656, 29.725358624562553 ], [ -95.643976182795186, 29.724464735606105 ], [ -95.644032521714209, 29.723776402536526 ], [ -95.644198877625982, 29.721362669238378 ], [ -95.644200662897788, 29.720119052449689 ] ] } },
{ "type": "Feature", "properties": { "FID": 43, "OBJECTID": 701, "RegionalRo": "SH 6 S", "Regional_1": "89196", "Regional_2": 0.49999999729299999, "BenSummary": 9, "BenSumma_1": 3, "BenSumma_2": 0, "BenSumma_3": 6, "BenSumma_4": 4, "BenSumma_5": 2, "BenSumma_6": 0, "BenSumma_7": 2, "TotalCrash": 18.000000097499999, "VehCrashRa": 12.000000065, "PedCrashRa": 6.00000003249, "BikeCrashR": 0.0, "Shape_Leng": 2639.9999856999998, "SVI": 0, "TIRZ": " ", "MD": " ", "Shape__Length": 2639.9999856892423 }, "geometry": { "type": "LineString", "coordinates": [ [ -95.64428201981859, 29.741885355444076 ], [ -95.644264627792126, 29.741712653538215 ], [ -95.644171417114052, 29.740976166527481 ], [ -95.644165031461725, 29.740899403147811 ], [ -95.64415273873017, 29.740413332377454 ], [ -95.644136984326138, 29.739549176044775 ], [ -95.644129307149214, 29.738910953368674 ], [ -95.644110927445595, 29.738111758441534 ], [ -95.644092279369289, 29.737081077150069 ], [ -95.644084558327322, 29.736414893711828 ], [ -95.644074747236516, 29.735587011310074 ], [ -95.644064811855372, 29.735266023822376 ], [ -95.644053013586571, 29.734994227884467 ], [ -95.644045798711872, 29.734740649476183 ], [ -95.644044182875234, 29.734631668546523 ] ] } },
{ "type": "Feature", "properties": { "FID": 44, "OBJECTID": 702, "RegionalRo": "SH 6 S", "Regional_1": "89198", "Regional_2": 0.49999999141200002, "BenSummary": 5, "BenSumma_1": 1, "BenSumma_2": 0, "BenSumma_3": 4, "BenSumma_4": 2, "BenSumma_5": 0, "BenSumma_6": 0, "BenSumma_7": 2, "TotalCrash": 10.0000001718, "VehCrashRa": 8.0000001374099998, "PedCrashRa": 2.0000000343500002, "BikeCrashR": 0.0, "Shape_Leng": 2639.9999546600002, "SVI": 0, "TIRZ": " ", "MD": " ", "Shape__Length": 2639.9999546561698 }, "geometry": { "type": "LineString", "coordinates": [ [ -95.644513459197881, 29.756392342790321 ], [ -95.644502778185043, 29.755871915440476 ], [ -95.644506020280176, 29.755631377709292 ], [ -95.644511515475457, 29.755464304282761 ], [ -95.644511559041305, 29.755178825189553 ], [ -95.644514797963382, 29.754938288235646 ], [ -95.644518037963024, 29.75469774948785 ], [ -95.644524873333324, 29.754489927202847 ], [ -95.644518855057655, 29.754118685996598 ], [ -95.644530081645186, 29.753285085899758 ], [ -95.644526635675135, 29.75314366343116 ], [ -95.644532907013797, 29.752953017945991 ], [ -95.644540870570111, 29.752867167538856 ], [ -95.644542572276407, 29.752815427712303 ], [ -95.644530196338621, 29.75254307537859 ], [ -95.644516509293453, 29.751734258449787 ], [ -95.644520136035155, 29.751570364869384 ], [ -95.644518247675862, 29.75102801880297 ], [ -95.644515488290793, 29.750662112912028 ], [ -95.644509049455053, 29.750408018964972 ], [ -95.644506549494395, 29.750184150808909 ], [ -95.644505158594214, 29.75007651727104 ], [ -95.644508553079461, 29.749973307195358 ], [ -95.644505554644596, 29.749314728915042 ], [ -95.644503321742349, 29.749176998536662 ], [ -95.644503484427858, 29.749133588174839 ] ] } },
{ "type": "Feature", "properties": { "FID": 45, "OBJECTID": 704, "RegionalRo": "SH 6 S", "Regional_1": "89201", "Regional_2": 0.50000000927900001, "BenSummary": 9, "BenSumma_1": 2, "BenSumma_2": 0, "BenSumma_3": 7, "BenSumma_4": 2, "BenSumma_5": 2, "BenSumma_6": 0, "BenSumma_7": 0, "TotalCrash": 17.999999665899999, "VehCrashRa": 13.9999997402, "PedCrashRa": 3.9999999257600001, "BikeCrashR": 0.0, "Shape_Leng": 2640.000049, "SVI": 0, "TIRZ": " ", "MD": " ", "Shape__Length": 2640.0000490103635 }, "geometry": { "type": "LineString", "coordinates": [ [ -95.644726773942509, 29.777777734656716 ], [ -95.644725307070473, 29.777698026468588 ], [ -95.644710448929843, 29.777444788812801 ], [ -95.644660182992297, 29.777122390328739 ], [ -95.644554168362674, 29.776644347349151 ], [ -95.644452936045809, 29.776285270938214 ], [ -95.644382954557187, 29.776121684601691 ], [ -95.644036432031882, 29.775377166803338 ], [ -95.643898106427997, 29.775133042950355 ], [ -95.643772347310573, 29.774810554024782 ], [ -95.643705368317001, 29.774664858814795 ], [ -95.643583692493081, 29.774436395509749 ], [ -95.643444002530558, 29.774101031000644 ], [ -95.643357982381815, 29.773879721756035 ], [ -95.643143563885971, 29.773198099967765 ], [ -95.643031160004696, 29.772688095426599 ], [ -95.642950947995558, 29.772362077999738 ], [ -95.642917146743144, 29.772008988818733 ], [ -95.642924392533203, 29.771570858535846 ], [ -95.643034372397835, 29.770774592632499 ] ] } },
{ "type": "Feature", "properties": { "FID": 46, "OBJECTID": 717, "RegionalRo": "ST JOSEPH PKWY", "Regional_1": "93819", "Regional_2": 0.49999990731299998, "BenSummary": 8, "BenSumma_1": 6, "BenSumma_2": 0, "BenSumma_3": 2, "BenSumma_4": 3, "BenSumma_5": 2, "BenSumma_6": 0, "BenSumma_7": 1, "TotalCrash": 16.000002966, "VehCrashRa": 4.0000007414900001, "PedCrashRa": 12.000002224499999, "BikeCrashR": 0.0, "Shape_Leng": 2639.9995106199999, "SVI": 0, "TIRZ": "Market Square/Greater Houston", "MD": "Houston Downtown", "Shape__Length": 2639.9995106152733 }, "geometry": { "type": "LineString", "coordinates": [ [ -95.374543128475722, 29.752812796426475 ], [ -95.374463304037903, 29.752766548397691 ], [ -95.373684500340374, 29.752315326945521 ], [ -95.37281790888737, 29.751797953417658 ], [ -95.371978642231099, 29.751282376323147 ], [ -95.371119081160089, 29.750758902600008 ], [ -95.370244981185891, 29.750229702522187 ], [ -95.369371493111757, 29.749709485532634 ], [ -95.369213389500914, 29.749614613772991 ], [ -95.368509304433161, 29.749196278342449 ], [ -95.367691126462759, 29.748695144672382 ] ] } },
{ "type": "Feature", "properties": { "FID": 47, "OBJECTID": 753, "RegionalRo": "TOMBALL PKWY", "Regional_1": "99841", "Regional_2": 0.50000001969499996, "BenSummary": 20, "BenSumma_1": 13, "BenSumma_2": 0, "BenSumma_3": 7, "BenSumma_4": 7, "BenSumma_5": 5, "BenSumma_6": 0, "BenSumma_7": 2, "TotalCrash": 39.999998424399998, "VehCrashRa": 13.999999448600001, "PedCrashRa": 25.999998975899999, "BikeCrashR": 0.0, "Shape_Leng": 2640.0001039899998, "SVI": 1, "TIRZ": " ", "MD": "Near Northwest", "Shape__Length": 2640.0001039774957 }, "geometry": { "type": "LineString", "coordinates": [ [ -95.493364796893843, 29.919566111410528 ], [ -95.493491817207826, 29.919647597319436 ], [ -95.493688711958143, 29.919784304177977 ], [ -95.493985476744413, 29.91997076024635 ], [ -95.494345011177359, 29.920187946630854 ], [ -95.494667966641927, 29.920425977888428 ], [ -95.495116784976247, 29.920737938344573 ], [ -95.495544945111732, 29.921061132120634 ], [ -95.495709294833347, 29.921194938959946 ], [ -95.495965747009151, 29.921401795149695 ], [ -95.496169601695641, 29.921566068075855 ], [ -95.496433007786507, 29.921767217227767 ], [ -95.49674881674332, 29.922016829956039 ], [ -95.497064829570007, 29.922260559595156 ], [ -95.497288741883324, 29.92243124176812 ], [ -95.497479497589779, 29.92258339548529 ], [ -95.497795931694398, 29.922815366273518 ], [ -95.498923254470981, 29.923639523766393 ], [ -95.499225974829855, 29.923877015398155 ], [ -95.499640656277933, 29.924199844440533 ], [ -95.499714438923348, 29.924260162603773 ] ] } },
{ "type": "Feature", "properties": { "FID": 48, "OBJECTID": 777, "RegionalRo": "W BELLFORT AVE", "Regional_1": "104089", "Regional_2": 0.50000001028300001, "BenSummary": 5, "BenSumma_1": 2, "BenSumma_2": 0, "BenSumma_3": 3, "BenSumma_4": 3, "BenSumma_5": 2, "BenSumma_6": 0, "BenSumma_7": 1, "TotalCrash": 9.9999997943400007, "VehCrashRa": 5.9999998765999996, "PedCrashRa": 3.9999999177299999, "BikeCrashR": 0.0, "Shape_Leng": 2640.0000543000001, "SVI": 2, "TIRZ": " ", "MD": "HCID #5 (Brays Oaks)/International", "Shape__Length": 2640.0000542940529 }, "geometry": { "type": "LineString", "coordinates": [ [ -95.561121362200481, 29.652720034473756 ], [ -95.562147066472406, 29.652888632870805 ], [ -95.563518071162321, 29.653241296025513 ], [ -95.563932773641298, 29.653370241112615 ], [ -95.564792250435474, 29.653624616033689 ], [ -95.565009204117388, 29.653691452551225 ], [ -95.565235058867145, 29.653779829489665 ], [ -95.565449695358566, 29.653847582478893 ], [ -95.565597957290166, 29.653894383211036 ], [ -95.565825731220229, 29.65396628181983 ], [ -95.56601900494536, 29.654027290938053 ], [ -95.566358742584299, 29.654124119766429 ], [ -95.566811122131327, 29.654259558122536 ], [ -95.567085526877364, 29.654347351011939 ], [ -95.5674515923141, 29.654458744825469 ], [ -95.567957365162854, 29.654611973829621 ], [ -95.568463280261824, 29.654760951260929 ], [ -95.568799953357967, 29.654864171672763 ], [ -95.569025976263973, 29.654931686224156 ] ] } },
{ "type": "Feature", "properties": { "FID": 49, "OBJECTID": 779, "RegionalRo": "W BELLFORT AVE", "Regional_1": "104096", "Regional_2": 0.50000007333700003, "BenSummary": 7, "BenSumma_1": 5, "BenSumma_2": 1, "BenSumma_3": 1, "BenSumma_4": 2, "BenSumma_5": 2, "BenSumma_6": 0, "BenSumma_7": 0, "TotalCrash": 13.999997946600001, "VehCrashRa": 1.9999997066499999, "PedCrashRa": 9.9999985332599994, "BikeCrashR": 1.9999997066499999, "Shape_Leng": 2640.00038722, "SVI": 4, "TIRZ": " ", "MD": "HCID #5 (Brays Oaks)", "Shape__Length": 2640.0003872060147 }, "geometry": { "type": "LineString", "coordinates": [ [ -95.503957578675099, 29.656051978035439 ], [ -95.504916125229386, 29.656029793165402 ], [ -95.505136296011642, 29.656027697616583 ], [ -95.505253110046951, 29.656027939259012 ], [ -95.505973183320265, 29.65602942388885 ], [ -95.506441289691395, 29.656029490208947 ], [ -95.506988649672522, 29.656019986853103 ], [ -95.507105970527718, 29.656017948253499 ], [ -95.507670106674212, 29.656017775574043 ], [ -95.508425821299952, 29.65601754022024 ], [ -95.508673085091615, 29.656011117745525 ], [ -95.509727656387028, 29.656005883424033 ], [ -95.510900822218659, 29.655994919445433 ], [ -95.511491468899806, 29.655994930635217 ], [ -95.511992163967818, 29.655990505683224 ], [ -95.512269128487844, 29.655988056739062 ] ] } },
{ "type": "Feature", "properties": { "FID": 50, "OBJECTID": 793, "RegionalRo": "W GULF BANK RD", "Regional_1": "104656", "Regional_2": 0.50000004338899995, "BenSummary": 5, "BenSumma_1": 1, "BenSumma_2": 0, "BenSumma_3": 4, "BenSumma_4": 2, "BenSumma_5": 1, "BenSumma_6": 0, "BenSumma_7": 1, "TotalCrash": 9.9999991322199993, "VehCrashRa": 7.9999993057800003, "PedCrashRa": 1.9999998264400001, "BikeCrashR": 0.0, "Shape_Leng": 2640.0002290900002, "SVI": 2, "TIRZ": " ", "MD": " ", "Shape__Length": 2640.0002290810394 }, "geometry": { "type": "LineString", "coordinates": [ [ -95.414394003511859, 29.889261334631325 ], [ -95.414600175711684, 29.889297541469979 ], [ -95.415485701746746, 29.889452309500939 ], [ -95.416375402629271, 29.889545150544159 ], [ -95.416901934991401, 29.889601649483314 ], [ -95.417267115917028, 29.889615152548185 ], [ -95.41817626082937, 29.889610546672486 ], [ -95.418536107163703, 29.889569510201305 ], [ -95.418925991410575, 29.889500578412868 ], [ -95.419115516683249, 29.889454992577686 ], [ -95.419553449945624, 29.889341762677255 ], [ -95.420029643518717, 29.889187345755833 ], [ -95.420511623069871, 29.888981418312113 ], [ -95.421755449975421, 29.88830675758512 ], [ -95.422247445092822, 29.8880192245018 ] ] } },
{ "type": "Feature", "properties": { "FID": 51, "OBJECTID": 848, "RegionalRo": "WESTHEIMER RD", "Regional_1": "107790", "Regional_2": 0.50000001256000004, "BenSummary": 5, "BenSumma_1": 2, "BenSumma_2": 0, "BenSumma_3": 3, "BenSumma_4": 3, "BenSumma_5": 1, "BenSumma_6": 0, "BenSumma_7": 2, "TotalCrash": 9.9999997488000005, "VehCrashRa": 5.99999984928, "PedCrashRa": 3.9999998995200001, "BikeCrashR": 0.0, "Shape_Leng": 2640.0000663199999, "SVI": 0, "TIRZ": " ", "MD": " ", "Shape__Length": 2640.0000663168817 }, "geometry": { "type": "LineString", "coordinates": [ [ -95.638250513411606, 29.735668210664475 ], [ -95.638808422670891, 29.73565862787089 ], [ -95.640030344017504, 29.735639758843277 ], [ -95.640694647230404, 29.735638058158571 ], [ -95.640835509817933, 29.73563512577525 ], [ -95.641229542851235, 29.735628105746063 ], [ -95.641414019000621, 29.735626772565208 ], [ -95.64188078201245, 29.7356160779538 ], [ -95.642360683782883, 29.735608776278269 ], [ -95.642725753871147, 29.735604931546057 ], [ -95.642985926135509, 29.735607876031953 ], [ -95.644074747236516, 29.735587011310074 ], [ -95.646567966249961, 29.735552182092373 ] ] } },
{ "type": "Feature", "properties": { "FID": 52, "OBJECTID": 856, "RegionalRo": "WESTHEIMER RD", "Regional_1": "107800", "Regional_2": 0.49999997960499998, "BenSummary": 10, "BenSumma_1": 2, "BenSumma_2": 0, "BenSumma_3": 8, "BenSumma_4": 3, "BenSumma_5": 2, "BenSumma_6": 0, "BenSumma_7": 1, "TotalCrash": 20.0000008158, "VehCrashRa": 16.000000652600001, "PedCrashRa": 4.0000001631600002, "BikeCrashR": 0.0, "Shape_Leng": 2639.9998923100002, "SVI": 0, "TIRZ": " ", "MD": "Westchase", "Shape__Length": 2639.9998922974278 }, "geometry": { "type": "LineString", "coordinates": [ [ -95.555081339985307, 29.736980921033268 ], [ -95.555509015089299, 29.73697636368416 ], [ -95.557090194078924, 29.736950701368318 ], [ -95.557524049669638, 29.73694635419702 ], [ -95.557718730099666, 29.736944403661507 ], [ -95.558396523059827, 29.736937608289278 ], [ -95.559095380169225, 29.736911352791758 ], [ -95.559852213195171, 29.736918513787842 ], [ -95.560164756210852, 29.736914259817866 ], [ -95.560530045166914, 29.736916432084925 ], [ -95.560777885725287, 29.736914689263571 ], [ -95.560893300556302, 29.736910201847195 ], [ -95.561712366243654, 29.736891605704152 ], [ -95.562304496828347, 29.73688693637833 ], [ -95.563140504489908, 29.736877446821566 ], [ -95.563398429233388, 29.736870010449874 ] ] } },
{ "type": "Feature", "properties": { "FID": 53, "OBJECTID": 861, "RegionalRo": "WESTHEIMER RD", "Regional_1": "107806", "Regional_2": 0.50000000164299996, "BenSummary": 5, "BenSumma_1": 3, "BenSumma_2": 0, "BenSumma_3": 2, "BenSumma_4": 2, "BenSumma_5": 2, "BenSumma_6": 0, "BenSumma_7": 0, "TotalCrash": 9.9999999671499999, "VehCrashRa": 3.9999999868599998, "PedCrashRa": 5.9999999802900001, "BikeCrashR": 0.0, "Shape_Leng": 2640.0000086700002, "SVI": 0, "TIRZ": " ", "MD": " ", "Shape__Length": 2640.0000086735899 }, "geometry": { "type": "LineString", "coordinates": [ [ -95.505177323003366, 29.737555252636557 ], [ -95.506043142548023, 29.737570152325056 ], [ -95.506363457526845, 29.737570516671099 ], [ -95.506803824902761, 29.737549798247379 ], [ -95.5071809659743, 29.73753105134546 ], [ -95.507393105757302, 29.7375292761363 ], [ -95.507879267080824, 29.737529909408934 ], [ -95.509376565862979, 29.737511597972969 ], [ -95.510079338738478, 29.737506099345993 ], [ -95.511061536919286, 29.737507878038528 ], [ -95.512267362195601, 29.73747879924694 ], [ -95.51349400223144, 29.737461711222796 ] ] } },
{ "type": "Feature", "properties": { "FID": 54, "OBJECTID": 862, "RegionalRo": "WESTHEIMER RD", "Regional_1": "107807", "Regional_2": 0.499999988452, "BenSummary": 14, "BenSumma_1": 6, "BenSumma_2": 1, "BenSumma_3": 7, "BenSumma_4": 3, "BenSumma_5": 1, "BenSumma_6": 0, "BenSumma_7": 2, "TotalCrash": 28.000000646699998, "VehCrashRa": 14.0000003233, "PedCrashRa": 12.0000002771, "BikeCrashR": 2.0000000461899998, "Shape_Leng": 2639.99993903, "SVI": 0, "TIRZ": "St. George Place", "MD": " ", "Shape__Length": 2639.9999390120165 }, "geometry": { "type": "LineString", "coordinates": [ [ -95.496859894602039, 29.737654683717523 ], [ -95.496921155915089, 29.737653436895236 ], [ -95.497248907981046, 29.737662008580958 ], [ -95.497358158985136, 29.737664866842621 ], [ -95.498325055125093, 29.737644828820716 ], [ -95.499189459048125, 29.737627862619291 ], [ -95.499400582463707, 29.73762371850275 ], [ -95.50090569399886, 29.737594162812076 ], [ -95.501915796355306, 29.737586400299968 ], [ -95.503391676833985, 29.737565684629384 ], [ -95.504136829881858, 29.737556213432242 ], [ -95.50504426720606, 29.737552962192545 ], [ -95.505177323003366, 29.737555252636557 ] ] } }
]
}
