{
"type": "FeatureCollection",
"name": "hin2025_priority",
"crs": { "type": "name", "properties": { "name": "urn:ogc:def:crs:OGC:1.3:CRS84" } },
"features": [
{ "type": "Feature", "properties": { "OBJECTID": 1, "Full_Name": "AIRLINE DR", "Ped_Death_Count": 2, "Bike_Death_Count": 0, "Veh_Death_Count": 0, "Ped_Crash_Count": 3, "Bike_Crash_Count": 0, "Veh_Crash_Count": 3, "Total_Crash_Count": 6, "RoadLength": 2640.0, "Miles": 0.5, "CrashRate": 12.0, "Total_Death_Count": 2, "Shape__Length": 2639.9999611328076 }, "geometry": { "type": "LineString", "coordinates": [ [ -95.382122308453276, 29.811884267711896 ], [ -95.382126175760348, 29.811913954621165 ], [ -95.382273514068913, 29.812586725507181 ], [ -95.382410850155622, 29.813263085880418 ], [ -95.382519113684026, 29.813697418519034 ], [ -95.382555780138389, 29.813945990133863 ], [ -95.382586758613257, 29.814156003226845 ], [ -95.382615134763739, 29.814348372404698 ], [ -95.382637553679672, 29.814479982382178 ], [ -95.382681396976125, 29.814778969117622 ], [ -95.382732920068818, 29.815106456541368 ], [ -95.382757429494347, 29.815285758353429 ], [ -95.382813553189919, 29.815823246476626 ], [ -95.382828079493478, 29.815960120681137 ], [ -95.382903911841055, 29.816579264094642 ], [ -95.382944966793076, 29.81699111465355 ], [ -95.3829543654372, 29.817077221808102 ], [ -95.38299293664214, 29.817412158314696 ], [ -95.38301637471163, 29.817610920103707 ], [ -95.383038332212536, 29.81784841157242 ], [ -95.383164583093347, 29.819000127344765 ], [ -95.383173359250122, 29.819080186137736 ] ] } },
{ "type": "Feature", "properties": { "OBJECTID": 2, "Full_Name": "ANTOINE DR", "Ped_Death_Count": 1, "Bike_Death_Count": 0, "Veh_Death_Count": 1, "Ped_Crash_Count": 1, "Bike_Crash_Count": 0, "Veh_Crash_Count": 7, "Total_Crash_Count": 8, "RoadLength": 2640.0001, "Miles": 0.5, "CrashRate": 16.0, "Total_Death_Count": 2, "Shape__Length": 2640.0001014243931 }, "geometry": { "type": "LineString", "coordinates": [ [ -95.473018304670873, 29.836332002424424 ], [ -95.473019451971595, 29.836342768384458 ], [ -95.473073998382603, 29.836820380231746 ], [ -95.473114013290171, 29.837616342619224 ], [ -95.473120712495188, 29.837915299152861 ], [ -95.473180083647776, 29.839027655205744 ], [ -95.473190950753974, 29.840339650498297 ], [ -95.473195400125817, 29.840953851941165 ], [ -95.473196195455301, 29.841599332257491 ], [ -95.473206023853734, 29.842280911099845 ], [ -95.473218261713157, 29.842926461897651 ], [ -95.473219640893774, 29.84305716144025 ], [ -95.473226490505525, 29.843587191196221 ] ] } },
{ "type": "Feature", "properties": { "OBJECTID": 3, "Full_Name": "BEECHNUT ST", "Ped_Death_Count": 2, "Bike_Death_Count": 0, "Veh_Death_Count": 0, "Ped_Crash_Count": 7, "Bike_Crash_Count": 0, "Veh_Crash_Count": 2, "Total_Crash_Count": 9, "RoadLength": 2639.9998, "Miles": 0.5, "CrashRate": 18.0, "Total_Death_Count": 2, "Shape__Length": 2639.9998353959077 }, "geometry": { "type": "LineString", "coordinates": [ [ -95.568054775372218, 29.688831439393933 ], [ -95.568195392779117, 29.688801266646333 ], [ -95.569530223052467, 29.688510350267194 ], [ -95.570256407341148, 29.688374438114938 ], [ -95.571218078804449, 29.688177003442991 ], [ -95.571927020566775, 29.688086393671703 ], [ -95.571994742750661, 29.6880790631472 ], [ -95.572573672865857, 29.688069546037738 ], [ -95.572995971488353, 29.68806733326268 ], [ -95.574027256800292, 29.688049248532099 ], [ -95.574650521145969, 29.68804466769317 ], [ -95.575485453452387, 29.688038654574445 ], [ -95.575924341448058, 29.68803961619605 ], [ -95.576273309141271, 29.688044870110037 ] ] } },
{ "type": "Feature", "properties": { "OBJECTID": 4, "Full_Name": "BEECHNUT ST", "Ped_Death_Count": 1, "Bike_Death_Count": 0, "Veh_Death_Count": 1, "Ped_Crash_Count": 1, "Bike_Crash_Count": 0, "Veh_Crash_Count": 10, "Total_Crash_Count": 11, "RoadLength": 2640.0, "Miles": 0.5, "CrashRate": 22.0, "Total_Death_Count": 2, "Shape__Length": 2639.9999506990221 }, "geometry": { "type": "LineString", "coordinates": [ [ -95.551710397562061, 29.690097816948661 ], [ -95.552287357532919, 29.689883687918272 ], [ -95.55275236633365, 29.689744097527132 ], [ -95.553836825965931, 29.689401663547237 ], [ -95.55450613920317, 29.689284547385615 ], [ -95.554857735123377, 29.689230788153942 ], [ -95.555331865707558, 29.689215023984509 ], [ -95.555431704952952, 29.689213962790266 ], [ -95.556080111451223, 29.689223384633625 ], [ -95.556873476666837, 29.689321212866989 ], [ -95.557122592850462, 29.689355689456463 ], [ -95.557279590897465, 29.689387280910189 ], [ -95.55747442824557, 29.689426486612213 ], [ -95.557910004224965, 29.689514133140293 ], [ -95.558831036744948, 29.689632833739982 ], [ -95.559528343337405, 29.689662635035358 ], [ -95.559818424103213, 29.689659708455448 ] ] } },
{ "type": "Feature", "properties": { "OBJECTID": 5, "Full_Name": "BEECHNUT ST", "Ped_Death_Count": 3, "Bike_Death_Count": 0, "Veh_Death_Count": 0, "Ped_Crash_Count": 5, "Bike_Crash_Count": 0, "Veh_Crash_Count": 1, "Total_Crash_Count": 6, "RoadLength": 2640.0002, "Miles": 0.5, "CrashRate": 12.0, "Total_Death_Count": 3, "Shape__Length": 2640.0002279080322 }, "geometry": { "type": "LineString", "coordinates": [ [ -95.543461821956271, 29.690596580251306 ], [ -95.54561106245211, 29.69056592355588 ], [ -95.546266551939695, 29.690560909298185 ], [ -95.546424561269774, 29.690561354208658 ], [ -95.546794059656946, 29.690560828960663 ], [ -95.548026049677304, 29.690548197000243 ], [ -95.549245036723391, 29.690532421343139 ], [ -95.549423945337637, 29.690529771770318 ], [ -95.549719558075964, 29.690519236899146 ], [ -95.550090816916992, 29.690485234659896 ], [ -95.550425295570761, 29.690432127271055 ], [ -95.550621802891214, 29.690400882477366 ], [ -95.551196300327078, 29.690259553100404 ], [ -95.551608016370722, 29.690135813695964 ], [ -95.551710397562061, 29.690097816948661 ] ] } },
{ "type": "Feature", "properties": { "OBJECTID": 6, "Full_Name": "BELLAIRE BLVD", "Ped_Death_Count": 1, "Bike_Death_Count": 0, "Veh_Death_Count": 1, "Ped_Crash_Count": 3, "Bike_Crash_Count": 0, "Veh_Crash_Count": 2, "Total_Crash_Count": 5, "RoadLength": 2640.0001, "Miles": 0.5, "CrashRate": 10.0, "Total_Death_Count": 2, "Shape__Length": 2640.0001037728889 }, "geometry": { "type": "LineString", "coordinates": [ [ -95.545228880333312, 29.704938872657866 ], [ -95.545294354329371, 29.704938766284162 ], [ -95.545728908061648, 29.70493722820639 ], [ -95.545933414997151, 29.704936128386414 ], [ -95.546385353883053, 29.704905362315245 ], [ -95.546517570793085, 29.704903550059846 ], [ -95.546683104478063, 29.704901278915493 ], [ -95.547285578324463, 29.704900879278547 ], [ -95.54824256091122, 29.704890492068088 ], [ -95.549765428519848, 29.70488193077318 ], [ -95.550724499160239, 29.704850325228275 ], [ -95.55146035297129, 29.70481591684559 ], [ -95.55353789845303, 29.704703823746215 ] ] } },
{ "type": "Feature", "properties": { "OBJECTID": 7, "Full_Name": "BELLAIRE BLVD", "Ped_Death_Count": 1, "Bike_Death_Count": 0, "Veh_Death_Count": 2, "Ped_Crash_Count": 2, "Bike_Crash_Count": 0, "Veh_Crash_Count": 6, "Total_Crash_Count": 8, "RoadLength": 2639.9999, "Miles": 0.5, "CrashRate": 16.0, "Total_Death_Count": 3, "Shape__Length": 2639.9999268919205 }, "geometry": { "type": "LineString", "coordinates": [ [ -95.536913263626928, 29.705012167527716 ], [ -95.537578850220399, 29.705007089823539 ], [ -95.537978826429878, 29.704998433037662 ], [ -95.539945629249459, 29.704974750304046 ], [ -95.541223125191948, 29.704960690238416 ], [ -95.542508169361426, 29.704946533954427 ], [ -95.542745402629734, 29.704949472906463 ], [ -95.543912601646284, 29.704938933254322 ], [ -95.544188349385095, 29.704940556411522 ], [ -95.545228880333312, 29.704938872657866 ] ] } },
{ "type": "Feature", "properties": { "OBJECTID": 8, "Full_Name": "BELLAIRE BLVD", "Ped_Death_Count": 1, "Bike_Death_Count": 1, "Veh_Death_Count": 2, "Ped_Crash_Count": 3, "Bike_Crash_Count": 2, "Veh_Crash_Count": 6, "Total_Crash_Count": 11, "RoadLength": 2640.0001, "Miles": 0.5, "CrashRate": 22.0, "Total_Death_Count": 4, "Shape__Length": 2640.0001304795305 }, "geometry": { "type": "LineString", "coordinates": [ [ -95.520283411066615, 29.705170312204597 ], [ -95.52056185513878, 29.705169662037424 ], [ -95.521302894286151, 29.705139241008968 ], [ -95.52486448289163, 29.705119094989865 ], [ -95.525246251164759, 29.705116930596908 ], [ -95.525628991352249, 29.705112547262054 ], [ -95.526350786344977, 29.705102647848399 ], [ -95.526559079994456, 29.705099181805309 ], [ -95.527462210848611, 29.705100500069214 ], [ -95.528357277165924, 29.705090709197528 ], [ -95.528598531600991, 29.705088894145121 ] ] } },
{ "type": "Feature", "properties": { "OBJECTID": 9, "Full_Name": "BELLAIRE BLVD", "Ped_Death_Count": 1, "Bike_Death_Count": 1, "Veh_Death_Count": 0, "Ped_Crash_Count": 1, "Bike_Crash_Count": 1, "Veh_Crash_Count": 5, "Total_Crash_Count": 7, "RoadLength": 2640.0, "Miles": 0.5, "CrashRate": 14.0, "Total_Death_Count": 2, "Shape__Length": 2640.0000144144637 }, "geometry": { "type": "LineString", "coordinates": [ [ -95.479198423546677, 29.705610922559309 ], [ -95.479752358912592, 29.705604742928269 ], [ -95.480449965703343, 29.705596955174869 ], [ -95.48090829219818, 29.705592952817625 ], [ -95.481511004467876, 29.705582216468574 ], [ -95.481899717322335, 29.705562480033439 ], [ -95.482540136283944, 29.705558212302162 ], [ -95.484629636297029, 29.705530634717082 ], [ -95.485854675382839, 29.705530544173644 ], [ -95.486719341136606, 29.705530474181767 ], [ -95.487508833786521, 29.705521405301081 ], [ -95.487513488456571, 29.705521352266814 ] ] } },
{ "type": "Feature", "properties": { "OBJECTID": 10, "Full_Name": "BISSONNET ST", "Ped_Death_Count": 1, "Bike_Death_Count": 0, "Veh_Death_Count": 1, "Ped_Crash_Count": 3, "Bike_Crash_Count": 0, "Veh_Crash_Count": 6, "Total_Crash_Count": 9, "RoadLength": 2639.9999, "Miles": 0.5, "CrashRate": 18.0, "Total_Death_Count": 2, "Shape__Length": 2639.9998604324828 }, "geometry": { "type": "LineString", "coordinates": [ [ -95.539286439944789, 29.676024858569829 ], [ -95.541318856963173, 29.675947694357266 ], [ -95.541700054013972, 29.675914075277525 ], [ -95.541943530244296, 29.67589260141424 ], [ -95.542182643710191, 29.675871512696052 ], [ -95.542558291519541, 29.675838380623979 ], [ -95.543883167366843, 29.675761348994161 ], [ -95.546060346141189, 29.675587170565692 ], [ -95.547156207082395, 29.675526321367926 ], [ -95.547576988810462, 29.675503153598722 ] ] } },
{ "type": "Feature", "properties": { "OBJECTID": 11, "Full_Name": "BISSONNET ST", "Ped_Death_Count": 2, "Bike_Death_Count": 0, "Veh_Death_Count": 0, "Ped_Crash_Count": 2, "Bike_Crash_Count": 0, "Veh_Crash_Count": 5, "Total_Crash_Count": 7, "RoadLength": 2640.0, "Miles": 0.5, "CrashRate": 14.0, "Total_Death_Count": 2, "Shape__Length": 2639.999955641003 }, "geometry": { "type": "LineString", "coordinates": [ [ -95.55586348361399, 29.674937213885475 ], [ -95.556400747745471, 29.674903231558659 ], [ -95.556917848679305, 29.674870708953438 ], [ -95.557606475164206, 29.674818254002847 ], [ -95.557707375931443, 29.674813155967477 ], [ -95.557863247770896, 29.674802715779911 ], [ -95.558480116795295, 29.674760789416208 ], [ -95.559153870225146, 29.674700093947806 ], [ -95.559942942927876, 29.674653917443237 ], [ -95.560260098361326, 29.674637492597505 ], [ -95.560475088879613, 29.674626358571654 ], [ -95.560844840287288, 29.674607209915269 ], [ -95.562844571747817, 29.674465515065972 ], [ -95.564153088491949, 29.67439042635381 ] ] } },
{ "type": "Feature", "properties": { "OBJECTID": 12, "Full_Name": "CLAY RD", "Ped_Death_Count": 1, "Bike_Death_Count": 0, "Veh_Death_Count": 1, "Ped_Crash_Count": 1, "Bike_Crash_Count": 0, "Veh_Crash_Count": 4, "Total_Crash_Count": 5, "RoadLength": 2640.0002, "Miles": 0.5, "CrashRate": 10.0, "Total_Death_Count": 2, "Shape__Length": 2640.0002150218543 }, "geometry": { "type": "LineString", "coordinates": [ [ -95.538047147964434, 29.832338026483033 ], [ -95.539052027633559, 29.832326834946336 ], [ -95.541861501967418, 29.832288184444941 ], [ -95.54215857865411, 29.832284094201579 ], [ -95.542758852084219, 29.832272956436842 ], [ -95.543486421172361, 29.832256104585209 ], [ -95.545321429144394, 29.832237866959282 ], [ -95.546157393768979, 29.832229590581409 ], [ -95.546350503126916, 29.832231431287266 ], [ -95.546372735300366, 29.832231233047448 ] ] } },
{ "type": "Feature", "properties": { "OBJECTID": 13, "Full_Name": "CLEARWOOD DR", "Ped_Death_Count": 2, "Bike_Death_Count": 0, "Veh_Death_Count": 2, "Ped_Crash_Count": 5, "Bike_Crash_Count": 0, "Veh_Crash_Count": 3, "Total_Crash_Count": 8, "RoadLength": 2640.0, "Miles": 0.5, "CrashRate": 16.0, "Total_Death_Count": 4, "Shape__Length": 2640.0000436182004 }, "geometry": { "type": "LineString", "coordinates": [ [ -95.243612392511068, 29.640693138592823 ], [ -95.244303637365022, 29.640138938955808 ], [ -95.244468035864728, 29.640005999611432 ], [ -95.24483256975293, 29.639711166155049 ], [ -95.245090356668797, 29.639518935744725 ], [ -95.245761951136572, 29.638665607457227 ], [ -95.246060561445489, 29.637997404835282 ], [ -95.246113516741772, 29.637732586255858 ], [ -95.246161534090476, 29.637532778834682 ], [ -95.246201783153708, 29.63730801791257 ], [ -95.24625312081497, 29.636645161123621 ], [ -95.246256062501189, 29.63596361892456 ], [ -95.246223650517308, 29.63564109745078 ], [ -95.246245223365548, 29.635308122781691 ], [ -95.246249302998763, 29.634597698867275 ], [ -95.246219359306053, 29.634250793462812 ] ] } },
{ "type": "Feature", "properties": { "OBJECTID": 14, "Full_Name": "CLEARWOOD DR", "Ped_Death_Count": 0, "Bike_Death_Count": 0, "Veh_Death_Count": 3, "Ped_Crash_Count": 1, "Bike_Crash_Count": 0, "Veh_Crash_Count": 4, "Total_Crash_Count": 5, "RoadLength": 2640.0, "Miles": 0.5, "CrashRate": 10.0, "Total_Death_Count": 3, "Shape__Length": 2640.0000136514336 }, "geometry": { "type": "LineString", "coordinates": [ [ -95.246219359306053, 29.634250793462812 ], [ -95.246211983874872, 29.634165342145646 ], [ -95.24627233298223, 29.633523920141162 ], [ -95.246428736221972, 29.632834849966038 ], [ -95.246753856113372, 29.632112339866403 ], [ -95.247161075206918, 29.631416283858485 ], [ -95.247413926407418, 29.630915926754859 ], [ -95.247817029497853, 29.630307696113793 ], [ -95.248078315431343, 29.629913442467956 ], [ -95.24838257129926, 29.629112417426075 ], [ -95.248457454976531, 29.628853311027264 ], [ -95.248550481049037, 29.628002603800823 ], [ -95.248535538992485, 29.627403442182569 ] ] } },
{ "type": "Feature", "properties": { "OBJECTID": 15, "Full_Name": "COLLINGSWORTH ST", "Ped_Death_Count": 1, "Bike_Death_Count": 0, "Veh_Death_Count": 1, "Ped_Crash_Count": 1, "Bike_Crash_Count": 0, "Veh_Crash_Count": 4, "Total_Crash_Count": 5, "RoadLength": 2639.9999, "Miles": 0.5, "CrashRate": 10.0, "Total_Death_Count": 2, "Shape__Length": 2639.9998791122225 }, "geometry": { "type": "LineString", "coordinates": [ [ -95.338015972594988, 29.793907687035901 ], [ -95.337214668159632, 29.793917869156402 ], [ -95.336016183014294, 29.793929469108182 ], [ -95.332043424744555, 29.79400563490227 ], [ -95.331438446289354, 29.794013719519185 ], [ -95.331246669957039, 29.794003541162059 ], [ -95.330987744558385, 29.793971799427851 ], [ -95.330626733331584, 29.793839853089018 ], [ -95.330404329013064, 29.793744990820912 ], [ -95.330169315313981, 29.793647009045159 ], [ -95.32984186024089, 29.793554816506564 ], [ -95.329794261252559, 29.793553746068952 ] ] } },
{ "type": "Feature", "properties": { "OBJECTID": 16, "Full_Name": "CORPORATE DR", "Ped_Death_Count": 1, "Bike_Death_Count": 1, "Veh_Death_Count": 0, "Ped_Crash_Count": 4, "Bike_Crash_Count": 1, "Veh_Crash_Count": 1, "Total_Crash_Count": 6, "RoadLength": 1755.2634, "Miles": 0.3324, "CrashRate": 18.05, "Total_Death_Count": 2, "Shape__Length": 1755.2633987619554 }, "geometry": { "type": "LineString", "coordinates": [ [ -95.552161275308066, 29.694973104572163 ], [ -95.552156979953622, 29.694784914555747 ], [ -95.552141175161765, 29.694238535117695 ], [ -95.552133765359812, 29.694077543553632 ], [ -95.552117842789656, 29.693407755638269 ], [ -95.552099363597577, 29.693194127700409 ], [ -95.552078051071433, 29.692986979959976 ], [ -95.552031060272128, 29.69269104986823 ], [ -95.552004921023013, 29.692556413264306 ], [ -95.551676012121249, 29.69152216330961 ], [ -95.551590684002676, 29.691303125482531 ], [ -95.551505391222534, 29.691080848911941 ], [ -95.551402769930306, 29.690794990776784 ], [ -95.551196300327078, 29.690259553100404 ] ] } },
{ "type": "Feature", "properties": { "OBJECTID": 17, "Full_Name": "CULLEN BLVD", "Ped_Death_Count": 2, "Bike_Death_Count": 0, "Veh_Death_Count": 0, "Ped_Crash_Count": 2, "Bike_Crash_Count": 0, "Veh_Crash_Count": 3, "Total_Crash_Count": 5, "RoadLength": 2640.0001, "Miles": 0.5, "CrashRate": 10.0, "Total_Death_Count": 2, "Shape__Length": 2640.0001383534536 }, "geometry": { "type": "LineString", "coordinates": [ [ -95.35550688359109, 29.661020669479864 ], [ -95.355496130189479, 29.660582200214648 ], [ -95.35548364061124, 29.659862607355631 ], [ -95.355476261225547, 29.659152679624505 ], [ -95.355447765819164, 29.65842312367397 ], [ -95.355427608753089, 29.657612819314821 ], [ -95.355428588877515, 29.657126993321167 ], [ -95.355419286839648, 29.65667142185433 ], [ -95.355418067236414, 29.655907590745514 ], [ -95.355388004546811, 29.654633665533012 ], [ -95.355378807157308, 29.654243858859999 ], [ -95.355379719115263, 29.65393672994114 ], [ -95.355377157840223, 29.653761723291588 ] ] } },
{ "type": "Feature", "properties": { "OBJECTID": 18, "Full_Name": "CULLEN BLVD", "Ped_Death_Count": 4, "Bike_Death_Count": 0, "Veh_Death_Count": 0, "Ped_Crash_Count": 3, "Bike_Crash_Count": 0, "Veh_Crash_Count": 3, "Total_Crash_Count": 6, "RoadLength": 2639.9999, "Miles": 0.5, "CrashRate": 12.0, "Total_Death_Count": 4, "Shape__Length": 2639.9999088624713 }, "geometry": { "type": "LineString", "coordinates": [ [ -95.355645410455338, 29.668278850303963 ], [ -95.35563867328294, 29.667946895130086 ], [ -95.355647041306867, 29.667480052949166 ], [ -95.355626842419156, 29.666743659142067 ], [ -95.355605739051896, 29.666032614344125 ], [ -95.355595970421604, 29.665335410249437 ], [ -95.355578675213664, 29.664360701137205 ], [ -95.355536097602112, 29.663284622501457 ], [ -95.355548206012088, 29.662447120253383 ], [ -95.35553332659606, 29.662212826438374 ], [ -95.355513897858913, 29.661306699249092 ], [ -95.35550688359109, 29.661020669479864 ] ] } },
{ "type": "Feature", "properties": { "OBJECTID": 19, "Full_Name": "CULLEN BLVD", "Ped_Death_Count": 0, "Bike_Death_Count": 0, "Veh_Death_Count": 2, "Ped_Crash_Count": 2, "Bike_Crash_Count": 0, "Veh_Crash_Count": 6, "Total_Crash_Count": 8, "RoadLength": 2639.9999, "Miles": 0.5, "CrashRate": 16.0, "Total_Death_Count": 2, "Shape__Length": 2639.9999059053116 }, "geometry": { "type": "LineString", "coordinates": [ [ -95.35582057815806, 29.675536631593612 ], [ -95.355820574719331, 29.675530443558852 ], [ -95.355806086007235, 29.674857421286926 ], [ -95.355795506916962, 29.674554449515202 ], [ -95.355793461258315, 29.674284947061725 ], [ -95.35578875099695, 29.674091284718813 ], [ -95.355763289123942, 29.673339522379749 ], [ -95.355740670850111, 29.672573001563961 ], [ -95.355744875992343, 29.671782165590692 ], [ -95.355727280857394, 29.671026268659975 ], [ -95.355691171887202, 29.670240151895129 ], [ -95.355680229146557, 29.669480424176797 ], [ -95.35567076323521, 29.669094482471099 ], [ -95.355660013173633, 29.668998375424582 ], [ -95.355645410455338, 29.668278850303963 ] ] } },
{ "type": "Feature", "properties": { "OBJECTID": 20, "Full_Name": "CULLEN BLVD", "Ped_Death_Count": 1, "Bike_Death_Count": 0, "Veh_Death_Count": 1, "Ped_Crash_Count": 2, "Bike_Crash_Count": 0, "Veh_Crash_Count": 4, "Total_Crash_Count": 6, "RoadLength": 2640.0, "Miles": 0.5, "CrashRate": 12.0, "Total_Death_Count": 2, "Shape__Length": 2640.0000408621972 }, "geometry": { "type": "LineString", "coordinates": [ [ -95.355908446566218, 29.682795803942973 ], [ -95.355910060113473, 29.682765921028107 ], [ -95.355884364262764, 29.681623780951554 ], [ -95.355881088425818, 29.68120590304963 ], [ -95.355883958884618, 29.680926150336642 ], [ -95.355886325868127, 29.680695428796898 ], [ -95.355888673877445, 29.680466599666069 ], [ -95.355885629353509, 29.680388872908463 ], [ -95.355876133703376, 29.678863447035585 ], [ -95.355869249821509, 29.67847746736059 ], [ -95.355823071533365, 29.677110040241512 ], [ -95.355821047375144, 29.676356295966571 ], [ -95.35582057815806, 29.675536631593612 ] ] } },
{ "type": "Feature", "properties": { "OBJECTID": 21, "Full_Name": "CULLEN BLVD", "Ped_Death_Count": 0, "Bike_Death_Count": 0, "Veh_Death_Count": 2, "Ped_Crash_Count": 2, "Bike_Crash_Count": 1, "Veh_Crash_Count": 3, "Total_Crash_Count": 6, "RoadLength": 2640.0002, "Miles": 0.5, "CrashRate": 12.0, "Total_Death_Count": 2, "Shape__Length": 2640.0002053876897 }, "geometry": { "type": "LineString", "coordinates": [ [ -95.353433460553092, 29.689692925692082 ], [ -95.353519121451001, 29.689488078204949 ], [ -95.354065280370506, 29.688104415062895 ], [ -95.354393263061183, 29.687311345298038 ], [ -95.354750722046276, 29.686422379458033 ], [ -95.354883761205841, 29.686091291878515 ], [ -95.35503558928599, 29.685741892797886 ], [ -95.355418339863178, 29.6847664130525 ], [ -95.35574229643565, 29.684038672475754 ], [ -95.355864941189409, 29.683601403906572 ], [ -95.355898232295047, 29.682984935251127 ], [ -95.355908446566218, 29.682795803942973 ] ] } },
{ "type": "Feature", "properties": { "OBJECTID": 22, "Full_Name": "DASHWOOD DR", "Ped_Death_Count": 2, "Bike_Death_Count": 0, "Veh_Death_Count": 1, "Ped_Crash_Count": 3, "Bike_Crash_Count": 1, "Veh_Crash_Count": 2, "Total_Crash_Count": 6, "RoadLength": 2227.7131, "Miles": 0.4219, "CrashRate": 14.22, "Total_Death_Count": 3, "Shape__Length": 2227.7131369009162 }, "geometry": { "type": "LineString", "coordinates": [ [ -95.486065732556256, 29.707347339395458 ], [ -95.486139724263452, 29.707347315678089 ], [ -95.4867460930204, 29.707338844000951 ], [ -95.487597728349158, 29.707323263373613 ], [ -95.488822987537105, 29.707310549882653 ], [ -95.489617177906254, 29.707313007214911 ], [ -95.490906396992457, 29.707298586048839 ], [ -95.491801305375219, 29.707278412301857 ], [ -95.493082562696912, 29.707266057997487 ] ] } },
{ "type": "Feature", "properties": { "OBJECTID": 23, "Full_Name": "DURHAM DR", "Ped_Death_Count": 0, "Bike_Death_Count": 0, "Veh_Death_Count": 2, "Ped_Crash_Count": 2, "Bike_Crash_Count": 1, "Veh_Crash_Count": 8, "Total_Crash_Count": 11, "RoadLength": 2640.0001, "Miles": 0.5, "CrashRate": 22.0, "Total_Death_Count": 2, "Shape__Length": 2640.0000598276151 }, "geometry": { "type": "LineString", "coordinates": [ [ -95.409479704803019, 29.765331742914228 ], [ -95.409621424901829, 29.765390219394302 ], [ -95.409946637731537, 29.765931639100867 ], [ -95.410060021744286, 29.766053393006839 ], [ -95.410478787130629, 29.766793553704929 ], [ -95.410552028684648, 29.767510212424433 ], [ -95.410576807993294, 29.768249672837388 ], [ -95.410579309342069, 29.768978126955286 ], [ -95.410578781867869, 29.769703771973681 ], [ -95.410568664676191, 29.770411470673725 ], [ -95.410583349951651, 29.770462288977459 ], [ -95.410589453722366, 29.77117719821964 ], [ -95.410612410750659, 29.771922431134005 ], [ -95.410620905608681, 29.772318048915732 ] ] } },
{ "type": "Feature", "properties": { "OBJECTID": 24, "Full_Name": "E CROSSTIMBERS ST", "Ped_Death_Count": 1, "Bike_Death_Count": 0, "Veh_Death_Count": 1, "Ped_Crash_Count": 1, "Bike_Crash_Count": 1, "Veh_Crash_Count": 3, "Total_Crash_Count": 5, "RoadLength": 2639.9999, "Miles": 0.5, "CrashRate": 10.0, "Total_Death_Count": 2, "Shape__Length": 2639.9999375652205 }, "geometry": { "type": "LineString", "coordinates": [ [ -95.372365319223789, 29.828405911132442 ], [ -95.371392031246174, 29.828427296340738 ], [ -95.370522784267337, 29.828435402815899 ], [ -95.36957869769671, 29.828440266045529 ], [ -95.368781949833476, 29.828438764821364 ], [ -95.367703964082423, 29.828451243803062 ], [ -95.367147024587567, 29.828496319981308 ], [ -95.36690716918875, 29.828553848037387 ], [ -95.36665230556099, 29.828632229994216 ], [ -95.36631429075193, 29.828726954541555 ], [ -95.366094021370415, 29.828780818224015 ], [ -95.36572747478067, 29.828853627126882 ], [ -95.365330342063814, 29.828885355920551 ], [ -95.36500718986926, 29.828892529544973 ], [ -95.364102862099884, 29.828897778651132 ] ] } },
{ "type": "Feature", "properties": { "OBJECTID": 25, "Full_Name": "E LITTLE YORK RD", "Ped_Death_Count": 1, "Bike_Death_Count": 1, "Veh_Death_Count": 0, "Ped_Crash_Count": 3, "Bike_Crash_Count": 1, "Veh_Crash_Count": 1, "Total_Crash_Count": 5, "RoadLength": 2640.0001, "Miles": 0.5, "CrashRate": 10.0, "Total_Death_Count": 2, "Shape__Length": 2640.0000636075142 }, "geometry": { "type": "LineString", "coordinates": [ [ -95.398797229985419, 29.869897310996461 ], [ -95.398746108748171, 29.869898634757014 ], [ -95.398523208546194, 29.869899394123568 ], [ -95.398364338450023, 29.869902098835183 ], [ -95.398073983103686, 29.869905426804483 ], [ -95.397827622129668, 29.869909056369139 ], [ -95.395594455249011, 29.869926544375922 ], [ -95.39455385414692, 29.869936635639956 ], [ -95.391212948578158, 29.869972182982945 ], [ -95.390726785336724, 29.869977642369598 ], [ -95.390468096453915, 29.8699802939954 ] ] } },
{ "type": "Feature", "properties": { "OBJECTID": 26, "Full_Name": "ELGIN ST", "Ped_Death_Count": 0, "Bike_Death_Count": 0, "Veh_Death_Count": 2, "Ped_Crash_Count": 1, "Bike_Crash_Count": 0, "Veh_Crash_Count": 6, "Total_Crash_Count": 7, "RoadLength": 2640.0, "Miles": 0.5, "CrashRate": 14.0, "Total_Death_Count": 2, "Shape__Length": 2639.9999670842381 }, "geometry": { "type": "LineString", "coordinates": [ [ -95.381695281726408, 29.744445618120189 ], [ -95.381319596580383, 29.744229526776358 ], [ -95.380487580631595, 29.743701229482348 ], [ -95.379639198789988, 29.743207654216999 ], [ -95.378783891258408, 29.742682030015782 ], [ -95.377928898587029, 29.742168174844014 ], [ -95.377183196489938, 29.741734899840598 ], [ -95.377040362551384, 29.741651907469382 ], [ -95.376607772300005, 29.741373103841468 ], [ -95.376180411263675, 29.741097669931701 ], [ -95.375321647491461, 29.740593445822064 ], [ -95.374854005516028, 29.740316779477663 ] ] } },
{ "type": "Feature", "properties": { "OBJECTID": 27, "Full_Name": "EMANCIPATION AVE", "Ped_Death_Count": 1, "Bike_Death_Count": 0, "Veh_Death_Count": 1, "Ped_Crash_Count": 1, "Bike_Crash_Count": 0, "Veh_Crash_Count": 6, "Total_Crash_Count": 7, "RoadLength": 2640.0001, "Miles": 0.5, "CrashRate": 14.0, "Total_Death_Count": 2, "Shape__Length": 2640.0001491523417 }, "geometry": { "type": "LineString", "coordinates": [ [ -95.358231883702672, 29.743009003330737 ], [ -95.358251754625954, 29.742982474111514 ], [ -95.358347250501822, 29.742862560002337 ], [ -95.358427863721261, 29.742761332835666 ], [ -95.358541842341523, 29.742618207751768 ], [ -95.358591477474278, 29.742555880478694 ], [ -95.35884285790145, 29.742249369671395 ], [ -95.359433111825552, 29.741504345999676 ], [ -95.360006300366251, 29.740755382648764 ], [ -95.360596003448194, 29.740029578633838 ], [ -95.361323436892192, 29.739096379516386 ], [ -95.362081204217475, 29.738176899521264 ], [ -95.362500518839724, 29.737623760737186 ], [ -95.362788576751299, 29.73726105336749 ], [ -95.362912760869648, 29.737098781645354 ], [ -95.362961575454733, 29.737037211339974 ] ] } },
{ "type": "Feature", "properties": { "OBJECTID": 28, "Full_Name": "FANNIN ST", "Ped_Death_Count": 1, "Bike_Death_Count": 0, "Veh_Death_Count": 5, "Ped_Crash_Count": 6, "Bike_Crash_Count": 0, "Veh_Crash_Count": 13, "Total_Crash_Count": 19, "RoadLength": 2640.0, "Miles": 0.5, "CrashRate": 38.0, "Total_Death_Count": 6, "Shape__Length": 2639.9999857650741 }, "geometry": { "type": "LineString", "coordinates": [ [ -95.367146508874512, 29.752513693224369 ], [ -95.367598647641813, 29.751948714820465 ], [ -95.368191344419003, 29.751203624427493 ], [ -95.368783367304971, 29.750461846786575 ], [ -95.36920588152438, 29.749920653450033 ], [ -95.369371494144929, 29.749709485560629 ], [ -95.369978329107227, 29.748949833256123 ], [ -95.370080726006179, 29.748819467445994 ], [ -95.370172984154209, 29.748702010361072 ], [ -95.370571573898019, 29.748194542832483 ], [ -95.371140967314957, 29.747469995064769 ], [ -95.371728480169224, 29.746730772611897 ], [ -95.371878583461509, 29.746542386624988 ] ] } },
{ "type": "Feature", "properties": { "OBJECTID": 29, "Full_Name": "FM 1960 E", "Ped_Death_Count": 2, "Bike_Death_Count": 0, "Veh_Death_Count": 1, "Ped_Crash_Count": 2, "Bike_Crash_Count": 0, "Veh_Crash_Count": 5, "Total_Crash_Count": 7, "RoadLength": 2410.3378, "Miles": 0.4565, "CrashRate": 15.33, "Total_Death_Count": 3, "Shape__Length": 2410.3378163277466 }, "geometry": { "type": "LineString", "coordinates": [ [ -95.106917989992056, 30.019429953687805 ], [ -95.105521573366303, 30.019651552488227 ], [ -95.100310548398525, 30.020452498859672 ], [ -95.099417348588915, 30.020580171644834 ] ] } },
{ "type": "Feature", "properties": { "OBJECTID": 30, "Full_Name": "FONDREN RD", "Ped_Death_Count": 1, "Bike_Death_Count": 1, "Veh_Death_Count": 1, "Ped_Crash_Count": 1, "Bike_Crash_Count": 1, "Veh_Crash_Count": 6, "Total_Crash_Count": 8, "RoadLength": 2640.0001, "Miles": 0.5, "CrashRate": 16.0, "Total_Death_Count": 3, "Shape__Length": 2640.0001054318614 }, "geometry": { "type": "LineString", "coordinates": [ [ -95.50770474249876, 29.631225833866999 ], [ -95.507656347158104, 29.63108256017264 ], [ -95.507570198273754, 29.630763334149073 ], [ -95.507557410314831, 29.630648866626352 ], [ -95.50754228068152, 29.630513441303993 ], [ -95.507521240734221, 29.630325117236989 ], [ -95.507484046130529, 29.629983035017542 ], [ -95.507379970283367, 29.628839988745412 ], [ -95.507370170734944, 29.628371803222652 ], [ -95.507361165916024, 29.627941596355214 ], [ -95.507346225930277, 29.627483822399228 ], [ -95.50734702809045, 29.627266069037489 ], [ -95.507332383630398, 29.626803373259413 ], [ -95.507317544140761, 29.62633441957141 ], [ -95.507328976858886, 29.625872174123195 ], [ -95.507352466657139, 29.624875597144325 ], [ -95.507480664464239, 29.623995772158892 ] ] } },
{ "type": "Feature", "properties": { "OBJECTID": 31, "Full_Name": "FONDREN RD", "Ped_Death_Count": 1, "Bike_Death_Count": 0, "Veh_Death_Count": 1, "Ped_Crash_Count": 2, "Bike_Crash_Count": 2, "Veh_Crash_Count": 4, "Total_Crash_Count": 8, "RoadLength": 2640.0001, "Miles": 0.5, "CrashRate": 16.0, "Total_Death_Count": 2, "Shape__Length": 2640.0000580135729 }, "geometry": { "type": "LineString", "coordinates": [ [ -95.521318993093047, 29.710080675006576 ], [ -95.521321942706606, 29.709389935289849 ], [ -95.521333756253696, 29.708978585311957 ], [ -95.521345069867053, 29.708412890122364 ], [ -95.521303382265941, 29.707428914128588 ], [ -95.52128827005852, 29.706415795754502 ], [ -95.521302894286151, 29.705139241008968 ], [ -95.521242043196821, 29.704497373177794 ], [ -95.521122574677975, 29.704003786322712 ], [ -95.52101816480365, 29.703697205037717 ], [ -95.520947454041149, 29.7035252024356 ], [ -95.520888996421775, 29.703402135456237 ], [ -95.520695413816256, 29.703056773970516 ], [ -95.52060993115856, 29.702928056421356 ] ] } },
{ "type": "Feature", "properties": { "OBJECTID": 32, "Full_Name": "FONDREN RD", "Ped_Death_Count": 0, "Bike_Death_Count": 0, "Veh_Death_Count": 2, "Ped_Crash_Count": 1, "Bike_Crash_Count": 0, "Veh_Crash_Count": 6, "Total_Crash_Count": 7, "RoadLength": 2639.9998, "Miles": 0.5, "CrashRate": 14.0, "Total_Death_Count": 2, "Shape__Length": 2639.9998250487752 }, "geometry": { "type": "LineString", "coordinates": [ [ -95.51999594722686, 29.717148817852674 ], [ -95.519996503952456, 29.717079724259047 ], [ -95.519967993065833, 29.716244815131724 ], [ -95.519974816441433, 29.715902482197656 ], [ -95.519976731455799, 29.715731599526777 ], [ -95.519987008337822, 29.715430272144019 ], [ -95.520030143898339, 29.715198130295896 ], [ -95.520128647176591, 29.714668008781327 ], [ -95.52028905190069, 29.714154129919219 ], [ -95.520410974751456, 29.713895822710018 ], [ -95.520808136859571, 29.713174441968476 ], [ -95.521081080420558, 29.712537101952122 ], [ -95.521254707936038, 29.71187440180093 ], [ -95.521313631131378, 29.711336141928665 ], [ -95.521318993093047, 29.710080675006576 ] ] } },
{ "type": "Feature", "properties": { "OBJECTID": 33, "Full_Name": "FONDREN RD", "Ped_Death_Count": 0, "Bike_Death_Count": 0, "Veh_Death_Count": 3, "Ped_Crash_Count": 1, "Bike_Crash_Count": 0, "Veh_Crash_Count": 10, "Total_Crash_Count": 11, "RoadLength": 2640.0001, "Miles": 0.5, "CrashRate": 22.0, "Total_Death_Count": 3, "Shape__Length": 2640.0001120061352 }, "geometry": { "type": "LineString", "coordinates": [ [ -95.520538053721395, 29.724370401327846 ], [ -95.520529491515347, 29.724106602648291 ], [ -95.520522953641091, 29.723786466805702 ], [ -95.520484092768882, 29.722469021622619 ], [ -95.520308467227096, 29.721462921925809 ], [ -95.520259396621952, 29.721287129700038 ], [ -95.520228463877018, 29.721176319477344 ], [ -95.520138502820615, 29.720854042235135 ], [ -95.520087539268545, 29.720527468721656 ], [ -95.52002635340402, 29.720254829551127 ], [ -95.520006746528267, 29.719629396462423 ], [ -95.51999107524108, 29.717753040562819 ], [ -95.51999594722686, 29.717148817852674 ] ] } },
{ "type": "Feature", "properties": { "OBJECTID": 34, "Full_Name": "FOUNTAIN VIEW DR", "Ped_Death_Count": 1, "Bike_Death_Count": 0, "Veh_Death_Count": 1, "Ped_Crash_Count": 1, "Bike_Crash_Count": 0, "Veh_Crash_Count": 4, "Total_Crash_Count": 5, "RoadLength": 2640.0, "Miles": 0.5, "CrashRate": 10.0, "Total_Death_Count": 2, "Shape__Length": 2639.999998707036 }, "geometry": { "type": "LineString", "coordinates": [ [ -95.48426956453649, 29.737034478653737 ], [ -95.484265855287276, 29.736874224075986 ], [ -95.484258344882093, 29.736549689396348 ], [ -95.484248446137684, 29.736121962066324 ], [ -95.484232052650157, 29.735413502150202 ], [ -95.484256618725638, 29.734256357532914 ], [ -95.484237181849664, 29.733054978941084 ], [ -95.484232613735315, 29.732838820622955 ], [ -95.484202827436832, 29.732234731783826 ], [ -95.484204511612432, 29.731508698026907 ], [ -95.484206972967741, 29.731269465609802 ], [ -95.48421080700318, 29.730896679304166 ], [ -95.48421290018679, 29.730693015908219 ], [ -95.484192579072428, 29.730163869142249 ], [ -95.484182892862137, 29.729776074304169 ] ] } },
{ "type": "Feature", "properties": { "OBJECTID": 35, "Full_Name": "GALVESTON RD", "Ped_Death_Count": 0, "Bike_Death_Count": 0, "Veh_Death_Count": 2, "Ped_Crash_Count": 1, "Bike_Crash_Count": 0, "Veh_Crash_Count": 4, "Total_Crash_Count": 5, "RoadLength": 2640.0, "Miles": 0.5, "CrashRate": 10.0, "Total_Death_Count": 2, "Shape__Length": 2640.0000156305196 }, "geometry": { "type": "LineString", "coordinates": [ [ -95.265023761949578, 29.695496972843436 ], [ -95.264973761507775, 29.695444101286078 ], [ -95.264678080861685, 29.695132574413268 ], [ -95.264147476574465, 29.694558707764603 ], [ -95.263245036584763, 29.693579243388204 ], [ -95.261163870440058, 29.691349393997701 ], [ -95.260034473777168, 29.690189383865668 ], [ -95.259753960955564, 29.689881467717235 ] ] } },
{ "type": "Feature", "properties": { "OBJECTID": 36, "Full_Name": "GESSNER RD", "Ped_Death_Count": 0, "Bike_Death_Count": 0, "Veh_Death_Count": 2, "Ped_Crash_Count": 3, "Bike_Crash_Count": 0, "Veh_Crash_Count": 7, "Total_Crash_Count": 10, "RoadLength": 2640.0, "Miles": 0.5, "CrashRate": 20.0, "Total_Death_Count": 2, "Shape__Length": 2639.9999566258612 }, "geometry": { "type": "LineString", "coordinates": [ [ -95.544476266001155, 29.778094838798445 ], [ -95.544477809224944, 29.778210814827947 ], [ -95.544488504615515, 29.779090375009993 ], [ -95.544500057543715, 29.779648206270359 ], [ -95.544489233847173, 29.779967676904509 ], [ -95.544449314377204, 29.780520370981769 ], [ -95.544361378943037, 29.780944145937802 ], [ -95.544318662469394, 29.781097673338373 ], [ -95.544196796022035, 29.781602324490891 ], [ -95.544025041692819, 29.782193954528484 ], [ -95.544003832070146, 29.78252165800588 ], [ -95.54397713222869, 29.78284822519819 ], [ -95.543980764387101, 29.783509649372366 ], [ -95.543981569120206, 29.783716475620363 ], [ -95.543980311207463, 29.783907343611531 ], [ -95.543972116754759, 29.784106596786099 ], [ -95.543968224301281, 29.784201248897741 ], [ -95.543968120188907, 29.784208413011822 ], [ -95.543966645664469, 29.784310218445874 ], [ -95.543963739443143, 29.784510824686723 ], [ -95.543980926284576, 29.785075835466142 ], [ -95.543990721588642, 29.785310401662326 ] ] } },
{ "type": "Feature", "properties": { "OBJECTID": 37, "Full_Name": "GREENRIDGE DR", "Ped_Death_Count": 0, "Bike_Death_Count": 0, "Veh_Death_Count": 2, "Ped_Crash_Count": 3, "Bike_Crash_Count": 0, "Veh_Crash_Count": 3, "Total_Crash_Count": 6, "RoadLength": 2587.5312, "Miles": 0.4901, "CrashRate": 12.24, "Total_Death_Count": 2, "Shape__Length": 2587.5311762884871 }, "geometry": { "type": "LineString", "coordinates": [ [ -95.489851818266743, 29.737734852196343 ], [ -95.489844352486301, 29.737020541698499 ], [ -95.489817391332934, 29.735344344636566 ], [ -95.489817111497928, 29.734790054101762 ], [ -95.489816841103021, 29.734255933322913 ], [ -95.489811202396652, 29.732991010649965 ], [ -95.489782162722292, 29.731791946946078 ], [ -95.489762030239646, 29.730619675671832 ] ] } },
{ "type": "Feature", "properties": { "OBJECTID": 38, "Full_Name": "GREENS RD", "Ped_Death_Count": 1, "Bike_Death_Count": 0, "Veh_Death_Count": 1, "Ped_Crash_Count": 1, "Bike_Crash_Count": 1, "Veh_Crash_Count": 4, "Total_Crash_Count": 6, "RoadLength": 2640.0, "Miles": 0.5, "CrashRate": 12.0, "Total_Death_Count": 2, "Shape__Length": 2639.9999541942011 }, "geometry": { "type": "LineString", "coordinates": [ [ -95.40841190402648, 29.950470512317747 ], [ -95.407696071972182, 29.950489983719361 ], [ -95.406698919518931, 29.950505376369907 ], [ -95.405052609118414, 29.950516533358417 ], [ -95.404762401487858, 29.950524541451458 ], [ -95.404076296489222, 29.950540356057981 ], [ -95.403435320232333, 29.950543909266123 ], [ -95.403313312018014, 29.950546271161038 ], [ -95.403073847262391, 29.950547693887227 ], [ -95.402519176959572, 29.950554975696917 ], [ -95.401911148530033, 29.950560825202096 ], [ -95.401427775043942, 29.95056558509944 ], [ -95.401206259702946, 29.950572933742819 ], [ -95.400496600431566, 29.950576049806621 ], [ -95.400224269043051, 29.950582036194991 ], [ -95.400077021084456, 29.950585050640598 ] ] } },
{ "type": "Feature", "properties": { "OBJECTID": 39, "Full_Name": "GREENSPOINT DR", "Ped_Death_Count": 2, "Bike_Death_Count": 0, "Veh_Death_Count": 1, "Ped_Crash_Count": 3, "Bike_Crash_Count": 0, "Veh_Crash_Count": 3, "Total_Crash_Count": 6, "RoadLength": 2640.0, "Miles": 0.5, "CrashRate": 12.0, "Total_Death_Count": 3, "Shape__Length": 2640.0000494960336 }, "geometry": { "type": "LineString", "coordinates": [ [ -95.407513329647571, 29.938977372083578 ], [ -95.407516856759116, 29.939342017052837 ], [ -95.407506983680477, 29.940285898238542 ], [ -95.407501969690983, 29.940453744680124 ], [ -95.40750050702573, 29.940502721621549 ], [ -95.407497728482326, 29.940595751195129 ], [ -95.407490437256811, 29.940839832251989 ], [ -95.407486901129346, 29.940958211118353 ], [ -95.407485265828555, 29.94101296192208 ], [ -95.407482281396895, 29.941112883693062 ], [ -95.407521191000185, 29.94321757804811 ], [ -95.40755016009588, 29.943908953579513 ], [ -95.407568722221086, 29.944302311415203 ], [ -95.407590601238567, 29.944497145832582 ], [ -95.407640363685175, 29.944820067821869 ], [ -95.407742002266303, 29.945225510410467 ], [ -95.407826521715819, 29.945488335297782 ], [ -95.407911006748591, 29.945683139726363 ], [ -95.408054837652344, 29.946008423104416 ], [ -95.408139046102889, 29.946158414603239 ] ] } },
{ "type": "Feature", "properties": { "OBJECTID": 40, "Full_Name": "HILLCROFT AVE", "Ped_Death_Count": 2, "Bike_Death_Count": 0, "Veh_Death_Count": 2, "Ped_Crash_Count": 6, "Bike_Crash_Count": 0, "Veh_Crash_Count": 5, "Total_Crash_Count": 11, "RoadLength": 2640.0, "Miles": 0.5, "CrashRate": 22.0, "Total_Death_Count": 4, "Shape__Length": 2640.0000405452492 }, "geometry": { "type": "LineString", "coordinates": [ [ -95.493358708054686, 29.711057284230051 ], [ -95.49327967711325, 29.710831445501015 ], [ -95.493143199021645, 29.710183473236533 ], [ -95.493121075730215, 29.709057212985769 ], [ -95.493093229306368, 29.708180138861174 ], [ -95.493082562696912, 29.707266057997487 ], [ -95.493066725620665, 29.706392746026872 ], [ -95.493050106503816, 29.705452646096163 ], [ -95.493043573126826, 29.704465533685688 ], [ -95.493025289146047, 29.703819310042814 ] ] } },
{ "type": "Feature", "properties": { "OBJECTID": 41, "Full_Name": "HOMESTEAD RD", "Ped_Death_Count": 1, "Bike_Death_Count": 0, "Veh_Death_Count": 2, "Ped_Crash_Count": 1, "Bike_Crash_Count": 0, "Veh_Crash_Count": 5, "Total_Crash_Count": 6, "RoadLength": 2640.0001, "Miles": 0.5, "CrashRate": 12.0, "Total_Death_Count": 3, "Shape__Length": 2640.000096853531 }, "geometry": { "type": "LineString", "coordinates": [ [ -95.300606615249251, 29.873419564021841 ], [ -95.30060362551049, 29.873897429798699 ], [ -95.300585943238673, 29.875918847973107 ], [ -95.300610233551069, 29.877644133167767 ], [ -95.30060186958741, 29.87968069965752 ], [ -95.300614052719951, 29.880679064921214 ] ] } },
{ "type": "Feature", "properties": { "OBJECTID": 42, "Full_Name": "MAIN ST", "Ped_Death_Count": 2, "Bike_Death_Count": 0, "Veh_Death_Count": 0, "Ped_Crash_Count": 2, "Bike_Crash_Count": 0, "Veh_Crash_Count": 7, "Total_Crash_Count": 9, "RoadLength": 2640.0001, "Miles": 0.5, "CrashRate": 18.0, "Total_Death_Count": 2, "Shape__Length": 2640.0000850812112 }, "geometry": { "type": "LineString", "coordinates": [ [ -95.424659654999658, 29.681324553326473 ], [ -95.424680798065765, 29.681297395946928 ], [ -95.425866556778985, 29.679845424063657 ], [ -95.42650511768683, 29.679023618095567 ], [ -95.427295924436478, 29.678005855011623 ], [ -95.427491209992894, 29.677769041447508 ], [ -95.427491259613035, 29.677768982292434 ], [ -95.427734381349367, 29.677474157271494 ], [ -95.427899418442323, 29.677274022239217 ], [ -95.428377718987974, 29.676646345492212 ], [ -95.428494144670424, 29.676494602356776 ], [ -95.429375360144846, 29.675346057913281 ] ] } },
{ "type": "Feature", "properties": { "OBJECTID": 43, "Full_Name": "MAIN ST", "Ped_Death_Count": 1, "Bike_Death_Count": 0, "Veh_Death_Count": 1, "Ped_Crash_Count": 3, "Bike_Crash_Count": 0, "Veh_Crash_Count": 6, "Total_Crash_Count": 9, "RoadLength": 2639.9999, "Miles": 0.5, "CrashRate": 18.0, "Total_Death_Count": 2, "Shape__Length": 2639.9998681856373 }, "geometry": { "type": "LineString", "coordinates": [ [ -95.419935151385104, 29.687297588146947 ], [ -95.420223392029868, 29.686943111849235 ], [ -95.420864714438196, 29.686137923700162 ], [ -95.421178386667052, 29.68572385469562 ], [ -95.421383378581709, 29.685460061104337 ], [ -95.421544845823959, 29.6852789486978 ], [ -95.421876360620374, 29.684860634894875 ], [ -95.422370163272134, 29.684228746197636 ], [ -95.422990932600399, 29.683429448625432 ], [ -95.423731589030226, 29.682477808342949 ], [ -95.423863660880343, 29.682330340517087 ], [ -95.424067360632463, 29.682073055525166 ], [ -95.424296249678918, 29.681791329695592 ], [ -95.424659654999658, 29.681324553326473 ] ] } },
{ "type": "Feature", "properties": { "OBJECTID": 44, "Full_Name": "MARTIN LUTHER KING BLVD", "Ped_Death_Count": 0, "Bike_Death_Count": 0, "Veh_Death_Count": 2, "Ped_Crash_Count": 2, "Bike_Crash_Count": 1, "Veh_Crash_Count": 3, "Total_Crash_Count": 6, "RoadLength": 2640.0001, "Miles": 0.5, "CrashRate": 12.0, "Total_Death_Count": 2, "Shape__Length": 2640.0001176092328 }, "geometry": { "type": "LineString", "coordinates": [ [ -95.336407896735167, 29.674073531076925 ], [ -95.336405536124886, 29.673873515882086 ], [ -95.336436086141774, 29.673756488774384 ], [ -95.336556789841424, 29.672962962771312 ], [ -95.336819897081526, 29.672239561208617 ], [ -95.336957928395506, 29.671880912095759 ], [ -95.337234640681984, 29.670778196391907 ], [ -95.337303296506619, 29.669979979388227 ], [ -95.337287398414304, 29.669192370956061 ], [ -95.337252332302626, 29.668402676252089 ], [ -95.337227413301292, 29.667598387075259 ], [ -95.337221567345637, 29.667379428844612 ], [ -95.337209567259123, 29.666929964741641 ], [ -95.337209026851099, 29.6669082635721 ] ] } },
{ "type": "Feature", "properties": { "OBJECTID": 45, "Full_Name": "MARTIN LUTHER KING BLVD", "Ped_Death_Count": 2, "Bike_Death_Count": 0, "Veh_Death_Count": 0, "Ped_Crash_Count": 3, "Bike_Crash_Count": 1, "Veh_Crash_Count": 2, "Total_Crash_Count": 6, "RoadLength": 2639.9998, "Miles": 0.5, "CrashRate": 12.0, "Total_Death_Count": 2, "Shape__Length": 2639.9997937370958 }, "geometry": { "type": "LineString", "coordinates": [ [ -95.338676692971191, 29.680630792297578 ], [ -95.338585269398422, 29.680519342520679 ], [ -95.337813428117769, 29.679940507201206 ], [ -95.337125718941664, 29.679346380757892 ], [ -95.336826439765431, 29.678943692858169 ], [ -95.336611993859833, 29.678450180955281 ], [ -95.33650205730838, 29.676967804846992 ], [ -95.336445763822354, 29.676202638984815 ], [ -95.336437139118431, 29.67541840805783 ], [ -95.336403532900562, 29.674679586768562 ], [ -95.336409687040955, 29.674225229244097 ], [ -95.336407896735167, 29.674073531076925 ] ] } },
{ "type": "Feature", "properties": { "OBJECTID": 46, "Full_Name": "MARTIN LUTHER KING BLVD", "Ped_Death_Count": 1, "Bike_Death_Count": 0, "Veh_Death_Count": 1, "Ped_Crash_Count": 1, "Bike_Crash_Count": 0, "Veh_Crash_Count": 7, "Total_Crash_Count": 8, "RoadLength": 2639.9999, "Miles": 0.5, "CrashRate": 16.0, "Total_Death_Count": 2, "Shape__Length": 2639.9999219401925 }, "geometry": { "type": "LineString", "coordinates": [ [ -95.340900945676651, 29.687443003169502 ], [ -95.341036053663686, 29.6871228485941 ], [ -95.341129840662433, 29.686788663474879 ], [ -95.341131318767196, 29.686421342876013 ], [ -95.341035753004064, 29.685990142595163 ], [ -95.340941073836291, 29.685707255133156 ], [ -95.340883351088721, 29.685534787354044 ], [ -95.340782408839175, 29.685233185472981 ], [ -95.340599463798071, 29.684794494609385 ], [ -95.340313760948632, 29.684061445135235 ], [ -95.340051909446544, 29.683339785213434 ], [ -95.33975573862412, 29.682608859902668 ], [ -95.339461402610326, 29.681879208801828 ], [ -95.339110435900324, 29.681159542974495 ], [ -95.338676692971191, 29.680630792297578 ] ] } },
{ "type": "Feature", "properties": { "OBJECTID": 47, "Full_Name": "MILAM ST", "Ped_Death_Count": 1, "Bike_Death_Count": 0, "Veh_Death_Count": 1, "Ped_Crash_Count": 1, "Bike_Crash_Count": 0, "Veh_Crash_Count": 4, "Total_Crash_Count": 5, "RoadLength": 2639.9998, "Miles": 0.5, "CrashRate": 10.0, "Total_Death_Count": 2, "Shape__Length": 2639.9998441820799 }, "geometry": { "type": "LineString", "coordinates": [ [ -95.36442718965597, 29.760813019903505 ], [ -95.364892611520773, 29.760247693309324 ], [ -95.365491740244295, 29.759506696875935 ], [ -95.366076356593169, 29.758740009716771 ], [ -95.366658316498274, 29.757997523490726 ], [ -95.367129106455835, 29.757409840451736 ], [ -95.367248027091748, 29.757258601067921 ], [ -95.367832063273482, 29.756519206375202 ], [ -95.368426431851262, 29.755758684297135 ], [ -95.369015498697209, 29.755028193980614 ], [ -95.369024439423924, 29.75501716194626 ], [ -95.369162853157974, 29.754844049458153 ] ] } },
{ "type": "Feature", "properties": { "OBJECTID": 48, "Full_Name": "MULLINS DR", "Ped_Death_Count": 1, "Bike_Death_Count": 1, "Veh_Death_Count": 0, "Ped_Crash_Count": 1, "Bike_Crash_Count": 2, "Veh_Crash_Count": 3, "Total_Crash_Count": 6, "RoadLength": 2640.0002, "Miles": 0.5, "CrashRate": 12.0, "Total_Death_Count": 2, "Shape__Length": 2640.0001943109014 }, "geometry": { "type": "LineString", "coordinates": [ [ -95.48679653912717, 29.710877232790576 ], [ -95.486780926219438, 29.710049600446968 ], [ -95.486768997066648, 29.709137607071035 ], [ -95.486758620984745, 29.7082462861155 ], [ -95.4867460930204, 29.707338844000951 ], [ -95.486725515707732, 29.706080040806775 ], [ -95.486719341136606, 29.705530474181767 ], [ -95.486712202722117, 29.704708224304834 ], [ -95.486701065136259, 29.703706192715611 ], [ -95.48670001832798, 29.703617622248768 ] ] } },
{ "type": "Feature", "properties": { "OBJECTID": 49, "Full_Name": "N SAM HOUSTON PKWY E", "Ped_Death_Count": 1, "Bike_Death_Count": 0, "Veh_Death_Count": 1, "Ped_Crash_Count": 1, "Bike_Crash_Count": 0, "Veh_Crash_Count": 4, "Total_Crash_Count": 5, "RoadLength": 2640.0, "Miles": 0.5, "CrashRate": 10.0, "Total_Death_Count": 2, "Shape__Length": 2639.9999683463134 }, "geometry": { "type": "LineString", "coordinates": [ [ -95.413263224083025, 29.940301187032844 ], [ -95.412960516687249, 29.940292644727695 ], [ -95.412535848430011, 29.94018767729904 ], [ -95.412419164605978, 29.940138590141814 ], [ -95.41200721012342, 29.939965284174939 ], [ -95.411620896203289, 29.939905859074202 ], [ -95.411481893880989, 29.939884475703746 ], [ -95.411019615752508, 29.939913650679468 ], [ -95.410670087363386, 29.939953624720989 ], [ -95.409511590101133, 29.940086577823561 ], [ -95.408121456608768, 29.940225793721321 ], [ -95.407506983680477, 29.940285898238542 ], [ -95.406386296955631, 29.94032734534596 ], [ -95.405226885458987, 29.940345968916532 ], [ -95.405039735686813, 29.940347047973592 ] ] } },
{ "type": "Feature", "properties": { "OBJECTID": 50, "Full_Name": "N SHEPHERD DR", "Ped_Death_Count": 2, "Bike_Death_Count": 0, "Veh_Death_Count": 1, "Ped_Crash_Count": 2, "Bike_Crash_Count": 0, "Veh_Crash_Count": 5, "Total_Crash_Count": 7, "RoadLength": 2639.9998, "Miles": 0.5, "CrashRate": 14.0, "Total_Death_Count": 3, "Shape__Length": 2639.9997956816355 }, "geometry": { "type": "LineString", "coordinates": [ [ -95.41099818264118, 29.845717404103709 ], [ -95.411116501807129, 29.847158714942271 ], [ -95.411201363759602, 29.847650765509254 ], [ -95.411555066555181, 29.849247829477147 ], [ -95.411594850061206, 29.849453935070642 ], [ -95.411773602385153, 29.850103130462848 ], [ -95.411966536586121, 29.850995119346749 ], [ -95.412142224668258, 29.851667967437606 ], [ -95.412226270634548, 29.852391546737344 ], [ -95.412262617848313, 29.852666747561109 ], [ -95.412275202476593, 29.852878458858065 ] ] } },
{ "type": "Feature", "properties": { "OBJECTID": 51, "Full_Name": "N SHEPHERD DR", "Ped_Death_Count": 2, "Bike_Death_Count": 0, "Veh_Death_Count": 1, "Ped_Crash_Count": 3, "Bike_Crash_Count": 0, "Veh_Crash_Count": 4, "Total_Crash_Count": 7, "RoadLength": 2640.0, "Miles": 0.5, "CrashRate": 14.0, "Total_Death_Count": 3, "Shape__Length": 2639.9999608677322 }, "geometry": { "type": "LineString", "coordinates": [ [ -95.410685701280215, 29.831201067624068 ], [ -95.410688798441413, 29.831395539017052 ], [ -95.410711945324266, 29.832518906336954 ], [ -95.410759838792544, 29.834720134631901 ], [ -95.410773074848123, 29.835208628618101 ], [ -95.410778158148787, 29.835683798932092 ], [ -95.410827159257394, 29.837259071965956 ], [ -95.410838337045931, 29.838039289377001 ], [ -95.410841242731451, 29.838242093776195 ], [ -95.410843853491173, 29.838459507554997 ] ] } },
{ "type": "Feature", "properties": { "OBJECTID": 52, "Full_Name": "NAVIGATION BLVD", "Ped_Death_Count": 1, "Bike_Death_Count": 1, "Veh_Death_Count": 1, "Ped_Crash_Count": 1, "Bike_Crash_Count": 1, "Veh_Crash_Count": 4, "Total_Crash_Count": 6, "RoadLength": 2639.9998, "Miles": 0.5, "CrashRate": 12.0, "Total_Death_Count": 3, "Shape__Length": 2639.999777777175 }, "geometry": { "type": "LineString", "coordinates": [ [ -95.305257831842596, 29.745889425962471 ], [ -95.30486139110991, 29.745761666760309 ], [ -95.302897488218747, 29.745107025402802 ], [ -95.300899416187249, 29.744459168707159 ], [ -95.29908832025869, 29.743885291054479 ], [ -95.298891340869218, 29.743815504952472 ], [ -95.298539839452843, 29.743701122718118 ], [ -95.298239878828227, 29.743600684855021 ], [ -95.297459843824896, 29.743360370174255 ] ] } },
{ "type": "Feature", "properties": { "OBJECTID": 53, "Full_Name": "OLD SPANISH TRL", "Ped_Death_Count": 2, "Bike_Death_Count": 1, "Veh_Death_Count": 0, "Ped_Crash_Count": 5, "Bike_Crash_Count": 1, "Veh_Crash_Count": 4, "Total_Crash_Count": 10, "RoadLength": 2640.0001, "Miles": 0.5, "CrashRate": 20.0, "Total_Death_Count": 3, "Shape__Length": 2640.0000692695967 }, "geometry": { "type": "LineString", "coordinates": [ [ -95.363402906818209, 29.702057378688462 ], [ -95.363253554688015, 29.702066001920844 ], [ -95.362205777647347, 29.702126490270029 ], [ -95.361297034364767, 29.702178945691855 ], [ -95.360316560795255, 29.702252039609334 ], [ -95.359441531086219, 29.702296045183434 ], [ -95.35853985925597, 29.70235262706753 ], [ -95.358140238904369, 29.702387483639541 ], [ -95.357317812761238, 29.702424655408393 ], [ -95.355105994375762, 29.702542094482002 ] ] } },
{ "type": "Feature", "properties": { "OBJECTID": 54, "Full_Name": "RANCHESTER DR", "Ped_Death_Count": 1, "Bike_Death_Count": 0, "Veh_Death_Count": 2, "Ped_Crash_Count": 2, "Bike_Crash_Count": 0, "Veh_Crash_Count": 3, "Total_Crash_Count": 5, "RoadLength": 2640.0002, "Miles": 0.5, "CrashRate": 10.0, "Total_Death_Count": 3, "Shape__Length": 2640.0002357433104 }, "geometry": { "type": "LineString", "coordinates": [ [ -95.545767237124863, 29.712328926521529 ], [ -95.545687639009984, 29.71211929418579 ], [ -95.545553044659442, 29.711543378410454 ], [ -95.545524304748227, 29.711017267019972 ], [ -95.545507927529016, 29.710175091827349 ], [ -95.545497558539608, 29.709918263177176 ], [ -95.545478295479015, 29.708854310081794 ], [ -95.54543703511311, 29.708486965271156 ], [ -95.545346169679291, 29.708072555452052 ], [ -95.545317686945168, 29.707659753779776 ], [ -95.545312649171819, 29.707185290118371 ], [ -95.545300806329294, 29.706455830595488 ], [ -95.545298663476402, 29.706176912359386 ], [ -95.545296180415036, 29.705853548425598 ], [ -95.545293373897152, 29.70565090495219 ], [ -95.545294127961725, 29.705103050647029 ] ] } },
{ "type": "Feature", "properties": { "OBJECTID": 55, "Full_Name": "REED RD", "Ped_Death_Count": 2, "Bike_Death_Count": 0, "Veh_Death_Count": 0, "Ped_Crash_Count": 2, "Bike_Crash_Count": 0, "Veh_Crash_Count": 3, "Total_Crash_Count": 5, "RoadLength": 2639.9999, "Miles": 0.5, "CrashRate": 10.0, "Total_Death_Count": 2, "Shape__Length": 2639.9998682272912 }, "geometry": { "type": "LineString", "coordinates": [ [ -95.343912342496608, 29.658549605247401 ], [ -95.343086579575186, 29.658559967081214 ], [ -95.341542442577108, 29.658575759807867 ], [ -95.340286060993805, 29.658589737198486 ], [ -95.339771347086355, 29.65859499141397 ], [ -95.337811984255168, 29.658618714160461 ], [ -95.337307979938203, 29.658633917108371 ], [ -95.336513069294639, 29.658622730011032 ], [ -95.335600922017974, 29.658636398266939 ] ] } },
{ "type": "Feature", "properties": { "OBJECTID": 56, "Full_Name": "RICHMOND AVE", "Ped_Death_Count": 1, "Bike_Death_Count": 0, "Veh_Death_Count": 1, "Ped_Crash_Count": 3, "Bike_Crash_Count": 0, "Veh_Crash_Count": 6, "Total_Crash_Count": 9, "RoadLength": 2639.9999, "Miles": 0.5, "CrashRate": 18.0, "Total_Death_Count": 2, "Shape__Length": 2639.9998553052142 }, "geometry": { "type": "LineString", "coordinates": [ [ -95.540986112697752, 29.727686345997448 ], [ -95.541580312751847, 29.727730781004702 ], [ -95.541832296357072, 29.727759364836615 ], [ -95.541985183556108, 29.727785863067389 ], [ -95.542146642480091, 29.727813845172687 ], [ -95.542942618552402, 29.728024018627103 ], [ -95.543139372457745, 29.728075968166639 ], [ -95.543330272598794, 29.728137091466991 ], [ -95.544089887343389, 29.728354443372044 ], [ -95.544407456743556, 29.728428561540262 ], [ -95.544877516818701, 29.728526720163085 ], [ -95.545251198828538, 29.728604753195693 ], [ -95.545456514115187, 29.728634454427802 ], [ -95.545752458663941, 29.728669641652022 ], [ -95.546502007654482, 29.728745703533207 ], [ -95.547309902617386, 29.728798952638233 ], [ -95.547541837796899, 29.728804930479573 ], [ -95.547758865485449, 29.728809493830788 ], [ -95.548454971234506, 29.72877709444661 ], [ -95.548977285383728, 29.728752781668295 ], [ -95.54914687748493, 29.728740754308625 ] ] } },
{ "type": "Feature", "properties": { "OBJECTID": 57, "Full_Name": "RICHMOND AVE", "Ped_Death_Count": 1, "Bike_Death_Count": 0, "Veh_Death_Count": 3, "Ped_Crash_Count": 2, "Bike_Crash_Count": 0, "Veh_Crash_Count": 7, "Total_Crash_Count": 9, "RoadLength": 2640.0001, "Miles": 0.5, "CrashRate": 18.0, "Total_Death_Count": 4, "Shape__Length": 2640.0001005905874 }, "geometry": { "type": "LineString", "coordinates": [ [ -95.500135994602346, 29.731677808443401 ], [ -95.501186039681372, 29.731662287605591 ], [ -95.501825936071356, 29.731635477335658 ], [ -95.502650307445151, 29.731512964789292 ], [ -95.503643092138461, 29.731170126576092 ], [ -95.505548114806317, 29.730459897635249 ], [ -95.506469132201772, 29.730098914687147 ], [ -95.507664199675276, 29.729628885137934 ], [ -95.50798576535567, 29.729558061352172 ] ] } },
{ "type": "Feature", "properties": { "OBJECTID": 58, "Full_Name": "RICHMOND AVE", "Ped_Death_Count": 2, "Bike_Death_Count": 0, "Veh_Death_Count": 2, "Ped_Crash_Count": 3, "Bike_Crash_Count": 1, "Veh_Crash_Count": 5, "Total_Crash_Count": 9, "RoadLength": 2639.9999, "Miles": 0.5, "CrashRate": 18.0, "Total_Death_Count": 4, "Shape__Length": 2639.9998659003268 }, "geometry": { "type": "LineString", "coordinates": [ [ -95.483519936507506, 29.731511303436797 ], [ -95.483721154733757, 29.731510537610163 ], [ -95.484204511612432, 29.731508698026907 ], [ -95.484863245986489, 29.73154579274345 ], [ -95.485399720571834, 29.731576001943349 ], [ -95.485696778340113, 29.731615099991195 ], [ -95.48646071198398, 29.731715646819477 ], [ -95.486921824714585, 29.731776335101181 ], [ -95.486967806291432, 29.731776585956656 ], [ -95.489782162722292, 29.731791946946078 ], [ -95.491818515701084, 29.731775067153624 ] ] } },
{ "type": "Feature", "properties": { "OBJECTID": 59, "Full_Name": "S DAIRY ASHFORD RD", "Ped_Death_Count": 1, "Bike_Death_Count": 0, "Veh_Death_Count": 1, "Ped_Crash_Count": 2, "Bike_Crash_Count": 0, "Veh_Crash_Count": 4, "Total_Crash_Count": 6, "RoadLength": 2640.0, "Miles": 0.5, "CrashRate": 12.0, "Total_Death_Count": 2, "Shape__Length": 2640.0000248624297 }, "geometry": { "type": "LineString", "coordinates": [ [ -95.60591317790022, 29.739419123813885 ], [ -95.605911189775398, 29.739078818482721 ], [ -95.605908324368414, 29.738601493491089 ], [ -95.605888948132318, 29.738032875548289 ], [ -95.605838896948043, 29.736178188275382 ], [ -95.605830014677821, 29.735521151795261 ], [ -95.605812698372574, 29.735002288183555 ], [ -95.605806966869352, 29.7347214892586 ], [ -95.605796233711544, 29.733770290179983 ], [ -95.605792623724042, 29.733642363600406 ], [ -95.605784819345004, 29.733183949866664 ], [ -95.605777046502681, 29.732620836735979 ], [ -95.605770926693623, 29.732273678095218 ], [ -95.605771278962095, 29.732160360544846 ] ] } },
{ "type": "Feature", "properties": { "OBJECTID": 60, "Full_Name": "S GESSNER RD", "Ped_Death_Count": 0, "Bike_Death_Count": 0, "Veh_Death_Count": 3, "Ped_Crash_Count": 1, "Bike_Crash_Count": 0, "Veh_Crash_Count": 6, "Total_Crash_Count": 7, "RoadLength": 2639.9999, "Miles": 0.5, "CrashRate": 14.0, "Total_Death_Count": 3, "Shape__Length": 2639.9999457165386 }, "geometry": { "type": "LineString", "coordinates": [ [ -95.537940463844805, 29.701567573600759 ], [ -95.537936559643299, 29.701365994086615 ], [ -95.537900389408534, 29.698896956759512 ], [ -95.537764508297926, 29.696526309462229 ], [ -95.537534611402521, 29.695222740590527 ], [ -95.537237625091137, 29.694364298465651 ] ] } },
{ "type": "Feature", "properties": { "OBJECTID": 61, "Full_Name": "S GESSNER RD", "Ped_Death_Count": 2, "Bike_Death_Count": 0, "Veh_Death_Count": 1, "Ped_Crash_Count": 4, "Bike_Crash_Count": 0, "Veh_Crash_Count": 1, "Total_Crash_Count": 5, "RoadLength": 2639.9999, "Miles": 0.5, "CrashRate": 10.0, "Total_Death_Count": 3, "Shape__Length": 2639.9998963145945 }, "geometry": { "type": "LineString", "coordinates": [ [ -95.538936250373141, 29.71599494435134 ], [ -95.538953805661421, 29.715483014768726 ], [ -95.538926778650406, 29.714637177397172 ], [ -95.538934787525292, 29.714487091510705 ], [ -95.538931572920021, 29.713631702827303 ], [ -95.538920078728225, 29.712700975196288 ], [ -95.538916758411816, 29.712538518267131 ], [ -95.538893645256081, 29.711407889588873 ], [ -95.538881345068233, 29.710836593969464 ], [ -95.538867258621579, 29.710301663654779 ], [ -95.538848374606843, 29.709623120330441 ], [ -95.538838970873243, 29.709330273250643 ], [ -95.538829111569655, 29.708955822090342 ], [ -95.53880041320653, 29.708737908091944 ] ] } },
{ "type": "Feature", "properties": { "OBJECTID": 62, "Full_Name": "S GESSNER RD", "Ped_Death_Count": 2, "Bike_Death_Count": 0, "Veh_Death_Count": 1, "Ped_Crash_Count": 4, "Bike_Crash_Count": 0, "Veh_Crash_Count": 6, "Total_Crash_Count": 10, "RoadLength": 2640.0, "Miles": 0.5, "CrashRate": 20.0, "Total_Death_Count": 3, "Shape__Length": 2640.0000316956753 }, "geometry": { "type": "LineString", "coordinates": [ [ -95.539096226151756, 29.723252446983494 ], [ -95.539093968946588, 29.722703960591687 ], [ -95.539088811800553, 29.722553141281608 ], [ -95.539080788003034, 29.722099956857917 ], [ -95.539076730620593, 29.721756379083779 ], [ -95.539073744655624, 29.72139779735722 ], [ -95.539069182901017, 29.720850521151352 ], [ -95.539059893605653, 29.719878044926979 ], [ -95.539059485649673, 29.719793046624321 ], [ -95.539058906626948, 29.719672049453397 ], [ -95.539058505240419, 29.719588290636302 ], [ -95.539049231762633, 29.719481314219195 ], [ -95.539039404996643, 29.719071762325829 ], [ -95.539001828035097, 29.718604384398585 ], [ -95.538966189672351, 29.717686873394744 ], [ -95.538932519642202, 29.716103734032831 ], [ -95.538936250373141, 29.71599494435134 ] ] } },
{ "type": "Feature", "properties": { "OBJECTID": 63, "Full_Name": "S KIRKWOOD RD", "Ped_Death_Count": 2, "Bike_Death_Count": 1, "Veh_Death_Count": 0, "Ped_Crash_Count": 2, "Bike_Crash_Count": 1, "Veh_Crash_Count": 2, "Total_Crash_Count": 5, "RoadLength": 2640.0, "Miles": 0.5, "CrashRate": 10.0, "Total_Death_Count": 3, "Shape__Length": 2639.9999647150648 }, "geometry": { "type": "LineString", "coordinates": [ [ -95.588621125048718, 29.736651021067356 ], [ -95.588620153066614, 29.736520961970346 ], [ -95.588573432686687, 29.735741834372956 ], [ -95.588702415499341, 29.734688641611321 ], [ -95.589237700279924, 29.733043375556345 ], [ -95.589359988152907, 29.73255000528329 ], [ -95.589405147890787, 29.731853802573976 ], [ -95.589327399434737, 29.731063422082208 ], [ -95.589220239812846, 29.730238852134175 ], [ -95.589310783064249, 29.729500489469501 ], [ -95.589313123827608, 29.729488162372036 ] ] } },
{ "type": "Feature", "properties": { "OBJECTID": 64, "Full_Name": "S POST OAK RD", "Ped_Death_Count": 2, "Bike_Death_Count": 0, "Veh_Death_Count": 2, "Ped_Crash_Count": 2, "Bike_Crash_Count": 0, "Veh_Crash_Count": 4, "Total_Crash_Count": 6, "RoadLength": 2639.9999, "Miles": 0.5, "CrashRate": 12.0, "Total_Death_Count": 4, "Shape__Length": 2639.9999245693693 }, "geometry": { "type": "LineString", "coordinates": [ [ -95.464044667861117, 29.661036986962586 ], [ -95.464004485735217, 29.659828751605421 ], [ -95.464004174052292, 29.659265542535717 ], [ -95.463972635241731, 29.658022175592201 ], [ -95.463938480676291, 29.656897407584584 ], [ -95.463932532303147, 29.656646934075031 ], [ -95.463932496110317, 29.656411751777767 ], [ -95.463926075306119, 29.655792273637115 ], [ -95.463920853336489, 29.655295432104126 ], [ -95.463909618786161, 29.654509805881101 ], [ -95.463906793932722, 29.654298512952 ], [ -95.463901301024734, 29.653887396909035 ], [ -95.463899841820933, 29.653778192224223 ] ] } },
{ "type": "Feature", "properties": { "OBJECTID": 65, "Full_Name": "SAGE RD", "Ped_Death_Count": 2, "Bike_Death_Count": 0, "Veh_Death_Count": 0, "Ped_Crash_Count": 5, "Bike_Crash_Count": 0, "Veh_Crash_Count": 0, "Total_Crash_Count": 5, "RoadLength": 2639.9999, "Miles": 0.5, "CrashRate": 10.0, "Total_Death_Count": 2, "Shape__Length": 2639.9999462979545 }, "geometry": { "type": "LineString", "coordinates": [ [ -95.467108952913605, 29.747489215327402 ], [ -95.46708473396879, 29.746813033253279 ], [ -95.46706444145083, 29.74626327820258 ], [ -95.46705802335147, 29.746059041260803 ], [ -95.467044655400329, 29.745264487556625 ], [ -95.467034723172787, 29.7446740911601 ], [ -95.467010331828249, 29.743873161702979 ], [ -95.467007418088684, 29.743562234728309 ], [ -95.466989415878004, 29.742310869905712 ], [ -95.466986105091166, 29.7421386313978 ], [ -95.466948933207078, 29.740462298305594 ], [ -95.466903509736355, 29.740234152936335 ] ] } },
{ "type": "Feature", "properties": { "OBJECTID": 66, "Full_Name": "TELEPHONE RD", "Ped_Death_Count": 1, "Bike_Death_Count": 0, "Veh_Death_Count": 1, "Ped_Crash_Count": 1, "Bike_Crash_Count": 0, "Veh_Crash_Count": 4, "Total_Crash_Count": 5, "RoadLength": 2640.0002, "Miles": 0.5, "CrashRate": 10.0, "Total_Death_Count": 2, "Shape__Length": 2640.0001528859516 }, "geometry": { "type": "LineString", "coordinates": [ [ -95.285809835534522, 29.632287730378867 ], [ -95.28580615521787, 29.63227883035357 ], [ -95.285564743145585, 29.630734549833669 ], [ -95.285548249599245, 29.630167701006808 ], [ -95.285539006617157, 29.629852303996167 ], [ -95.285527117215139, 29.629615448459369 ], [ -95.285512445096089, 29.629132290420326 ], [ -95.285506164085987, 29.628729028272868 ], [ -95.28549277849055, 29.628208254377927 ], [ -95.285469113328972, 29.627287607862865 ], [ -95.285442989921577, 29.626271286905798 ], [ -95.285441728152492, 29.626231174801099 ], [ -95.285421738563116, 29.625455356375102 ], [ -95.285433376492065, 29.625044039826033 ] ] } },
{ "type": "Feature", "properties": { "OBJECTID": 67, "Full_Name": "TELEPHONE RD", "Ped_Death_Count": 4, "Bike_Death_Count": 0, "Veh_Death_Count": 0, "Ped_Crash_Count": 4, "Bike_Crash_Count": 1, "Veh_Crash_Count": 2, "Total_Crash_Count": 7, "RoadLength": 2640.0, "Miles": 0.5, "CrashRate": 14.0, "Total_Death_Count": 4, "Shape__Length": 2639.9999846146957 }, "geometry": { "type": "LineString", "coordinates": [ [ -95.285433376492065, 29.625044039826033 ], [ -95.285433918300498, 29.625024907304649 ], [ -95.285403804176184, 29.623754396663607 ], [ -95.285363061201906, 29.622181366508478 ], [ -95.285345891069852, 29.621441044649174 ], [ -95.285369871181885, 29.62122797983638 ], [ -95.285346368451215, 29.620961004392438 ], [ -95.285341420946779, 29.620784646281994 ], [ -95.285311235205995, 29.619661947217239 ], [ -95.285294288668013, 29.618643860576864 ], [ -95.28528641595706, 29.618483513938848 ], [ -95.285266130417313, 29.617831140865921 ], [ -95.285264353713771, 29.617787295171325 ] ] } },
{ "type": "Feature", "properties": { "OBJECTID": 68, "Full_Name": "TELEPHONE RD", "Ped_Death_Count": 1, "Bike_Death_Count": 0, "Veh_Death_Count": 2, "Ped_Crash_Count": 3, "Bike_Crash_Count": 0, "Veh_Crash_Count": 5, "Total_Crash_Count": 8, "RoadLength": 2639.9998, "Miles": 0.5, "CrashRate": 16.0, "Total_Death_Count": 3, "Shape__Length": 2639.9998134485404 }, "geometry": { "type": "LineString", "coordinates": [ [ -95.289466152561403, 29.675169568942227 ], [ -95.289453400794528, 29.675150964600999 ], [ -95.289327222814478, 29.674832248661009 ], [ -95.289216555645041, 29.67453232353062 ], [ -95.289197236820797, 29.673896306056918 ], [ -95.289188208574146, 29.673191095069299 ], [ -95.289191872121464, 29.672442310927163 ], [ -95.289154218228845, 29.671926715135175 ], [ -95.28913904936158, 29.671718950049346 ], [ -95.289134745255026, 29.671568527280641 ], [ -95.289141215252556, 29.671468753458552 ], [ -95.289156530395132, 29.67123258020219 ], [ -95.289138919382694, 29.670306154331804 ], [ -95.28910028382532, 29.669358834510032 ], [ -95.289089213445322, 29.668165275971859 ], [ -95.289085698249579, 29.667949270619065 ] ] } },
{ "type": "Feature", "properties": { "OBJECTID": 69, "Full_Name": "TELEPHONE RD", "Ped_Death_Count": 2, "Bike_Death_Count": 0, "Veh_Death_Count": 0, "Ped_Crash_Count": 3, "Bike_Crash_Count": 1, "Veh_Crash_Count": 1, "Total_Crash_Count": 5, "RoadLength": 2640.0, "Miles": 0.5, "CrashRate": 10.0, "Total_Death_Count": 2, "Shape__Length": 2639.999965372253 }, "geometry": { "type": "LineString", "coordinates": [ [ -95.309009229436015, 29.706355894784462 ], [ -95.308829165662473, 29.706238129448849 ], [ -95.308515381675093, 29.706082485706826 ], [ -95.308394293030233, 29.706010150426575 ], [ -95.308151351911306, 29.70582829452507 ], [ -95.307568280688358, 29.705403172321837 ], [ -95.306835931193817, 29.704835427528455 ], [ -95.306337354904301, 29.704460858005461 ], [ -95.305219090663954, 29.703582869762549 ], [ -95.304355372816303, 29.702747196274835 ], [ -95.303518898275982, 29.701531843366631 ], [ -95.303294208644843, 29.701192158606652 ] ] } },
{ "type": "Feature", "properties": { "OBJECTID": 70, "Full_Name": "TIDWELL RD", "Ped_Death_Count": 0, "Bike_Death_Count": 0, "Veh_Death_Count": 2, "Ped_Crash_Count": 4, "Bike_Crash_Count": 0, "Veh_Crash_Count": 2, "Total_Crash_Count": 6, "RoadLength": 2640.0, "Miles": 0.5, "CrashRate": 12.0, "Total_Death_Count": 2, "Shape__Length": 2640.0000162459569 }, "geometry": { "type": "LineString", "coordinates": [ [ -95.343145733346432, 29.848148616678262 ], [ -95.342903341199019, 29.848150874821005 ], [ -95.34117880579511, 29.848190251361419 ], [ -95.339606192670061, 29.848224881056687 ], [ -95.338119927134002, 29.848255512525018 ], [ -95.337701127007435, 29.848291892038084 ], [ -95.337471365818743, 29.848325463368681 ], [ -95.337271856154985, 29.848365176210667 ], [ -95.337035243924447, 29.848419811706947 ], [ -95.336749155445148, 29.848494348298573 ], [ -95.336370215685179, 29.84859248594163 ], [ -95.33602722160191, 29.848661231261335 ], [ -95.335739779131487, 29.848697123259644 ], [ -95.335441663132414, 29.848713974035952 ], [ -95.335000645601525, 29.848717543256104 ], [ -95.334879315501297, 29.848719908846196 ] ] } },
{ "type": "Feature", "properties": { "OBJECTID": 71, "Full_Name": "TIDWELL RD", "Ped_Death_Count": 1, "Bike_Death_Count": 1, "Veh_Death_Count": 0, "Ped_Crash_Count": 4, "Bike_Crash_Count": 1, "Veh_Crash_Count": 1, "Total_Crash_Count": 6, "RoadLength": 2640.0002, "Miles": 0.5, "CrashRate": 12.0, "Total_Death_Count": 2, "Shape__Length": 2640.0001753236547 }, "geometry": { "type": "LineString", "coordinates": [ [ -95.268764666960919, 29.849984774239115 ], [ -95.268556774905136, 29.849992486928802 ], [ -95.267469288674192, 29.850004084037053 ], [ -95.26641188141717, 29.850024823273305 ], [ -95.264611827058346, 29.850037696040456 ], [ -95.263812253765536, 29.850043406435873 ], [ -95.262336386654809, 29.850053933944825 ], [ -95.260437399244196, 29.850074227966125 ] ] } },
{ "type": "Feature", "properties": { "OBJECTID": 72, "Full_Name": "W BELLFORT AVE", "Ped_Death_Count": 1, "Bike_Death_Count": 0, "Veh_Death_Count": 1, "Ped_Crash_Count": 2, "Bike_Crash_Count": 0, "Veh_Crash_Count": 5, "Total_Crash_Count": 7, "RoadLength": 2640.0001, "Miles": 0.5, "CrashRate": 14.0, "Total_Death_Count": 2, "Shape__Length": 2640.0001370851696 }, "geometry": { "type": "LineString", "coordinates": [ [ -95.559379859291795, 29.652642588098264 ], [ -95.560178061282983, 29.652641384207886 ], [ -95.560913651226642, 29.652685890900184 ], [ -95.562147067504696, 29.652888632897596 ], [ -95.563518072194569, 29.653241296052308 ], [ -95.563932772608567, 29.653370241086382 ], [ -95.564792251467779, 29.653624616060185 ], [ -95.565009205149636, 29.653691452577984 ], [ -95.565235059899393, 29.653779829516445 ], [ -95.565449696390857, 29.653847582505382 ], [ -95.565597958322471, 29.653894383237525 ], [ -95.565825732252506, 29.653966281846571 ], [ -95.566019005977623, 29.654027290964795 ], [ -95.56635874361659, 29.654124119793167 ], [ -95.566811123163589, 29.654259558149302 ], [ -95.567085527909654, 29.654347351038417 ], [ -95.567374124241525, 29.654435171495667 ] ] } },
{ "type": "Feature", "properties": { "OBJECTID": 73, "Full_Name": "W DALLAS ST", "Ped_Death_Count": 0, "Bike_Death_Count": 1, "Veh_Death_Count": 2, "Ped_Crash_Count": 1, "Bike_Crash_Count": 1, "Veh_Crash_Count": 5, "Total_Crash_Count": 7, "RoadLength": 2639.9999, "Miles": 0.5, "CrashRate": 14.0, "Total_Death_Count": 3, "Shape__Length": 2639.9999356284479 }, "geometry": { "type": "LineString", "coordinates": [ [ -95.388432663663693, 29.757557698954642 ], [ -95.388947161435354, 29.757545885681321 ], [ -95.389588440766289, 29.757538445247462 ], [ -95.389751647782745, 29.757532737450482 ], [ -95.390710926514387, 29.757498103116589 ], [ -95.391299326327228, 29.757486873254482 ], [ -95.391795410079922, 29.757473760597968 ], [ -95.392271194981831, 29.757462618893616 ], [ -95.393027821346138, 29.757455801616079 ], [ -95.393464716829953, 29.757448624888905 ], [ -95.39401133433806, 29.757433919720867 ], [ -95.394744611170182, 29.75741609099633 ], [ -95.395588271011135, 29.757395465049076 ], [ -95.396026254503596, 29.757387924717872 ], [ -95.396372684484902, 29.757381813893257 ], [ -95.396750190377958, 29.757373296402012 ] ] } },
{ "type": "Feature", "properties": { "OBJECTID": 74, "Full_Name": "W LITTLE YORK RD", "Ped_Death_Count": 1, "Bike_Death_Count": 0, "Veh_Death_Count": 1, "Ped_Crash_Count": 1, "Bike_Crash_Count": 0, "Veh_Crash_Count": 5, "Total_Crash_Count": 6, "RoadLength": 2640.0, "Miles": 0.5, "CrashRate": 12.0, "Total_Death_Count": 2, "Shape__Length": 2640.0000071843615 }, "geometry": { "type": "LineString", "coordinates": [ [ -95.482346844076233, 29.865760263620842 ], [ -95.482458193086003, 29.865759991910554 ], [ -95.483207704106633, 29.865758156492593 ], [ -95.483841967763524, 29.865756600483813 ], [ -95.484578442347868, 29.865755578256074 ], [ -95.486771484234595, 29.865752510479755 ], [ -95.486903227592919, 29.865751260055017 ], [ -95.488613635556902, 29.86573501947122 ], [ -95.489275122289456, 29.865737023405003 ], [ -95.489624282713478, 29.865738080982435 ], [ -95.49067591134056, 29.865721347713418 ] ] } },
{ "type": "Feature", "properties": { "OBJECTID": 75, "Full_Name": "W LITTLE YORK RD", "Ped_Death_Count": 0, "Bike_Death_Count": 1, "Veh_Death_Count": 1, "Ped_Crash_Count": 1, "Bike_Crash_Count": 1, "Veh_Crash_Count": 3, "Total_Crash_Count": 5, "RoadLength": 2639.9999, "Miles": 0.5, "CrashRate": 10.0, "Total_Death_Count": 2, "Shape__Length": 2639.9999197832085 }, "geometry": { "type": "LineString", "coordinates": [ [ -95.442116500648766, 29.863488976648295 ], [ -95.442306661286452, 29.863487428544435 ], [ -95.443098998189129, 29.863484453187247 ], [ -95.443771142983124, 29.863488821170915 ], [ -95.443818514854584, 29.863483856218139 ], [ -95.443981870915579, 29.863479297032786 ], [ -95.444675950065189, 29.863480046587842 ], [ -95.446403408150289, 29.863478635776257 ], [ -95.446728589250554, 29.863476732847811 ], [ -95.446961842861739, 29.863469874960252 ], [ -95.447223502986105, 29.863458929201293 ], [ -95.44754244045896, 29.863412525833294 ], [ -95.447863294514832, 29.863358218578565 ], [ -95.448855212140288, 29.863176838198708 ], [ -95.449091786908994, 29.863143263058085 ], [ -95.450409279402265, 29.863170777350462 ] ] } },
{ "type": "Feature", "properties": { "OBJECTID": 76, "Full_Name": "W LOOP S", "Ped_Death_Count": 1, "Bike_Death_Count": 0, "Veh_Death_Count": 2, "Ped_Crash_Count": 3, "Bike_Crash_Count": 0, "Veh_Crash_Count": 6, "Total_Crash_Count": 9, "RoadLength": 2640.0, "Miles": 0.5, "CrashRate": 18.0, "Total_Death_Count": 3, "Shape__Length": 2639.9999878904355 }, "geometry": { "type": "LineString", "coordinates": [ [ -95.46019682210887, 29.675634649523481 ], [ -95.46020624924958, 29.675608083291142 ], [ -95.460363671513875, 29.675149597737033 ], [ -95.460907696391644, 29.673630760873177 ], [ -95.461273949765769, 29.672918311431172 ], [ -95.461546004789071, 29.672147973831592 ], [ -95.461891138759441, 29.671172135241811 ], [ -95.461987514999464, 29.67089743829909 ], [ -95.46204747470496, 29.670726535112784 ], [ -95.462172775529012, 29.670335270262125 ], [ -95.462391914956271, 29.669733119944116 ], [ -95.462462029577722, 29.669541093512848 ], [ -95.462612755497389, 29.669024630454093 ], [ -95.46269143064616, 29.668716990011145 ] ] } },
{ "type": "Feature", "properties": { "OBJECTID": 77, "Full_Name": "WALKER ST", "Ped_Death_Count": 1, "Bike_Death_Count": 0, "Veh_Death_Count": 1, "Ped_Crash_Count": 3, "Bike_Crash_Count": 0, "Veh_Crash_Count": 8, "Total_Crash_Count": 11, "RoadLength": 2639.9999, "Miles": 0.5, "CrashRate": 22.0, "Total_Death_Count": 2, "Shape__Length": 2639.9999087309657 }, "geometry": { "type": "LineString", "coordinates": [ [ -95.370066911520922, 29.761145123163491 ], [ -95.369900357898231, 29.761046240128604 ], [ -95.36950041429445, 29.760804397008627 ], [ -95.368832098288877, 29.760419279081553 ], [ -95.368620150321377, 29.760288441954739 ], [ -95.367789164462266, 29.759790410328407 ], [ -95.366923270311773, 29.759265520219966 ], [ -95.366076356593169, 29.758740009716771 ], [ -95.365215404185705, 29.758226006277539 ], [ -95.364324987159407, 29.757678488432926 ], [ -95.363718198804804, 29.75731729631989 ], [ -95.36345794895584, 29.757154545578221 ], [ -95.363223174258849, 29.75701653916412 ] ] } },
{ "type": "Feature", "properties": { "OBJECTID": 78, "Full_Name": "WESTHEIMER RD", "Ped_Death_Count": 2, "Bike_Death_Count": 0, "Veh_Death_Count": 0, "Ped_Crash_Count": 3, "Bike_Crash_Count": 0, "Veh_Crash_Count": 4, "Total_Crash_Count": 7, "RoadLength": 2640.0002, "Miles": 0.5, "CrashRate": 14.0, "Total_Death_Count": 2, "Shape__Length": 2640.0002093836274 }, "geometry": { "type": "LineString", "coordinates": [ [ -95.633440901938187, 29.735730143842634 ], [ -95.634335966400158, 29.735718965096449 ], [ -95.635150023523352, 29.73570664566132 ], [ -95.635725703650692, 29.735699548397324 ], [ -95.636325919873258, 29.735695835732518 ], [ -95.636600365778207, 29.735691916570325 ], [ -95.637803758063313, 29.735681904939838 ], [ -95.638145762732364, 29.735672874239345 ], [ -95.63821279433138, 29.735668858160768 ], [ -95.638808422670621, 29.735658627871146 ], [ -95.640030345050619, 29.735639758869485 ], [ -95.64069464619682, 29.73563805813265 ], [ -95.640835510851062, 29.735635125801419 ], [ -95.641229542851022, 29.735628105746049 ], [ -95.641414019000351, 29.735626772565467 ], [ -95.641758406476896, 29.735618881844431 ] ] } },
{ "type": "Feature", "properties": { "OBJECTID": 79, "Full_Name": "WESTHEIMER RD", "Ped_Death_Count": 1, "Bike_Death_Count": 0, "Veh_Death_Count": 1, "Ped_Crash_Count": 1, "Bike_Crash_Count": 0, "Veh_Crash_Count": 5, "Total_Crash_Count": 6, "RoadLength": 2639.9999, "Miles": 0.5, "CrashRate": 12.0, "Total_Death_Count": 2, "Shape__Length": 2639.9998792220863 }, "geometry": { "type": "LineString", "coordinates": [ [ -95.609467981888073, 29.736107850353591 ], [ -95.611455082049304, 29.736070439616086 ], [ -95.612435821954662, 29.736042627214161 ], [ -95.612606329160272, 29.73603561799613 ], [ -95.613537345714803, 29.736009090171539 ], [ -95.614253019228727, 29.735981531148155 ], [ -95.614885160788035, 29.735974016861714 ], [ -95.615184793352128, 29.735972658083853 ], [ -95.615962319286339, 29.735967407426124 ], [ -95.61694155669862, 29.735954460627262 ], [ -95.617512959756439, 29.735945726875165 ], [ -95.617784113861703, 29.735946250903542 ] ] } },
{ "type": "Feature", "properties": { "OBJECTID": 80, "Full_Name": "WESTHEIMER RD", "Ped_Death_Count": 1, "Bike_Death_Count": 0, "Veh_Death_Count": 1, "Ped_Crash_Count": 3, "Bike_Crash_Count": 0, "Veh_Crash_Count": 4, "Total_Crash_Count": 7, "RoadLength": 2640.0002, "Miles": 0.5, "CrashRate": 14.0, "Total_Death_Count": 2, "Shape__Length": 2640.0001533741838 }, "geometry": { "type": "LineString", "coordinates": [ [ -95.601150923345827, 29.736229732708441 ], [ -95.603083920388158, 29.736212821915103 ], [ -95.603965025067012, 29.736201747311334 ], [ -95.604711846382529, 29.7361984011125 ], [ -95.605299619235311, 29.736179882320652 ], [ -95.605838896948043, 29.736178188275382 ], [ -95.607050290594273, 29.736165031308243 ], [ -95.607291711654582, 29.73615798889751 ], [ -95.608725602372246, 29.736133474867351 ], [ -95.609071585155547, 29.736124130653973 ], [ -95.609368522693302, 29.736109721678051 ], [ -95.609467981888073, 29.736107850353591 ] ] } },
{ "type": "Feature", "properties": { "OBJECTID": 81, "Full_Name": "WESTHEIMER RD", "Ped_Death_Count": 1, "Bike_Death_Count": 0, "Veh_Death_Count": 1, "Ped_Crash_Count": 10, "Bike_Crash_Count": 0, "Veh_Crash_Count": 6, "Total_Crash_Count": 16, "RoadLength": 2639.9999, "Miles": 0.5, "CrashRate": 32.0, "Total_Death_Count": 2, "Shape__Length": 2639.9999092414837 }, "geometry": { "type": "LineString", "coordinates": [ [ -95.584519380187743, 29.736563899288203 ], [ -95.585000775857225, 29.736553243051091 ], [ -95.586242596977243, 29.736544205195312 ], [ -95.58722817133463, 29.736528627427202 ], [ -95.587760868840107, 29.736529181657215 ], [ -95.588620153066614, 29.736520961970346 ], [ -95.589358794875238, 29.736509667252914 ], [ -95.589524648439166, 29.736501845870034 ], [ -95.589645489636268, 29.736498901626742 ], [ -95.591096203031711, 29.736445512018069 ], [ -95.591732039380304, 29.73641352139613 ], [ -95.592585231238914, 29.736381036697264 ], [ -95.59260505324886, 29.736377983631279 ], [ -95.592833778499227, 29.736370899761152 ] ] } },
{ "type": "Feature", "properties": { "OBJECTID": 82, "Full_Name": "WESTHEIMER RD", "Ped_Death_Count": 1, "Bike_Death_Count": 0, "Veh_Death_Count": 2, "Ped_Crash_Count": 3, "Bike_Crash_Count": 0, "Veh_Crash_Count": 8, "Total_Crash_Count": 11, "RoadLength": 2640.0, "Miles": 0.5, "CrashRate": 22.0, "Total_Death_Count": 3, "Shape__Length": 2640.0000119764622 }, "geometry": { "type": "LineString", "coordinates": [ [ -95.559567180106541, 29.736915817424592 ], [ -95.5598522142283, 29.736918513814636 ], [ -95.56016475517724, 29.736914259791327 ], [ -95.5605300462, 29.736916432111727 ], [ -95.560777886758387, 29.736914689290376 ], [ -95.560893301589431, 29.736910201873727 ], [ -95.561712367276783, 29.736891605730957 ], [ -95.56230449786149, 29.736886936405117 ], [ -95.563140505523037, 29.736877446848347 ], [ -95.563486157868056, 29.736867481458567 ], [ -95.564202962979635, 29.736859501088023 ], [ -95.565139969036267, 29.73684963226594 ], [ -95.566906288532579, 29.736823345003362 ], [ -95.56767484115197, 29.736816673059931 ], [ -95.567884859814498, 29.736815797565328 ] ] } },
{ "type": "Feature", "properties": { "OBJECTID": 83, "Full_Name": "WESTHEIMER RD", "Ped_Death_Count": 2, "Bike_Death_Count": 0, "Veh_Death_Count": 0, "Ped_Crash_Count": 3, "Bike_Crash_Count": 1, "Veh_Crash_Count": 1, "Total_Crash_Count": 5, "RoadLength": 2639.9999, "Miles": 0.5, "CrashRate": 10.0, "Total_Death_Count": 2, "Shape__Length": 2639.9999457557715 }, "geometry": { "type": "LineString", "coordinates": [ [ -95.534615207875689, 29.737252291554451 ], [ -95.534793374870773, 29.737251141323785 ], [ -95.534851171557975, 29.737245129975864 ], [ -95.535663638282543, 29.737227133253615 ], [ -95.535866832926018, 29.737221676047035 ], [ -95.537328082041981, 29.737194633938305 ], [ -95.537692893463856, 29.737185231093122 ], [ -95.538096021354562, 29.737184489786426 ], [ -95.538873163737819, 29.737184578366694 ], [ -95.539424788062249, 29.737195277742654 ], [ -95.540440168808743, 29.737169862043899 ], [ -95.541411770727535, 29.737149951826094 ], [ -95.542269195270151, 29.737142659895053 ], [ -95.542931892884894, 29.737134367912805 ] ] } },
{ "type": "Feature", "properties": { "OBJECTID": 84, "Full_Name": "WESTHEIMER RD", "Ped_Death_Count": 1, "Bike_Death_Count": 1, "Veh_Death_Count": 3, "Ped_Crash_Count": 5, "Bike_Crash_Count": 1, "Veh_Crash_Count": 7, "Total_Crash_Count": 13, "RoadLength": 2640.0, "Miles": 0.5, "CrashRate": 26.0, "Total_Death_Count": 5, "Shape__Length": 2640.0000107413539 }, "geometry": { "type": "LineString", "coordinates": [ [ -95.517980440419294, 29.737413353479891 ], [ -95.518851543390866, 29.737399713983635 ], [ -95.519762014254553, 29.737389212738375 ], [ -95.520471756429515, 29.737382031812366 ], [ -95.52116823915506, 29.73739525984395 ], [ -95.522115726441868, 29.737377555740117 ], [ -95.52260068850218, 29.73736899779151 ], [ -95.523001976999382, 29.737364727525247 ], [ -95.52497548529027, 29.737336804658078 ], [ -95.525837092359438, 29.73730779946483 ], [ -95.52629764764248, 29.73730595079115 ] ] } },
{ "type": "Feature", "properties": { "OBJECTID": 85, "Full_Name": "WESTHEIMER RD", "Ped_Death_Count": 5, "Bike_Death_Count": 0, "Veh_Death_Count": 1, "Ped_Crash_Count": 9, "Bike_Crash_Count": 1, "Veh_Crash_Count": 2, "Total_Crash_Count": 12, "RoadLength": 2640.0, "Miles": 0.5, "CrashRate": 24.0, "Total_Death_Count": 6, "Shape__Length": 2640.0000175255691 }, "geometry": { "type": "LineString", "coordinates": [ [ -95.509662667404783, 29.737509359698802 ], [ -95.510079339771579, 29.737506099372901 ], [ -95.511061536919044, 29.737507878038787 ], [ -95.512267362195388, 29.73747879924694 ], [ -95.514195226711578, 29.737451938116873 ], [ -95.515713343283451, 29.73745048770558 ], [ -95.51685886627692, 29.73743120319519 ], [ -95.517108675971954, 29.737426997201453 ], [ -95.517980440419294, 29.737413353479891 ] ] } },
{ "type": "Feature", "properties": { "OBJECTID": 86, "Full_Name": "WESTHEIMER RD", "Ped_Death_Count": 3, "Bike_Death_Count": 0, "Veh_Death_Count": 1, "Ped_Crash_Count": 4, "Bike_Crash_Count": 0, "Veh_Crash_Count": 5, "Total_Crash_Count": 9, "RoadLength": 2640.0, "Miles": 0.5, "CrashRate": 18.0, "Total_Death_Count": 4, "Shape__Length": 2639.9999620388121 }, "geometry": { "type": "LineString", "coordinates": [ [ -95.501345675538488, 29.737590782923828 ], [ -95.501915796355064, 29.737586400299946 ], [ -95.503391676833758, 29.73756568462964 ], [ -95.504136830914959, 29.737556213459492 ], [ -95.50504426617249, 29.737552962165861 ], [ -95.506043141514439, 29.737570152298371 ], [ -95.506363456493261, 29.737570516644411 ], [ -95.506803823869191, 29.737549798220726 ], [ -95.507180965974044, 29.737531051345709 ], [ -95.507393106790431, 29.737529276163507 ], [ -95.507879268113967, 29.73752990943586 ], [ -95.50937656482941, 29.73751159794605 ], [ -95.509662667404783, 29.737509359698802 ] ] } },
{ "type": "Feature", "properties": { "OBJECTID": 87, "Full_Name": "WESTHEIMER RD", "Ped_Death_Count": 6, "Bike_Death_Count": 0, "Veh_Death_Count": 0, "Ped_Crash_Count": 14, "Bike_Crash_Count": 1, "Veh_Crash_Count": 6, "Total_Crash_Count": 21, "RoadLength": 2639.9998, "Miles": 0.5, "CrashRate": 42.0, "Total_Death_Count": 6, "Shape__Length": 2639.99979066673 }, "geometry": { "type": "LineString", "coordinates": [ [ -95.493029517253646, 29.737676211807077 ], [ -95.493538745050088, 29.737668675775982 ], [ -95.495107440133054, 29.737694699208465 ], [ -95.495744869380985, 29.737662059286194 ], [ -95.49635516374336, 29.737664956799772 ], [ -95.496921156948176, 29.737653436922525 ], [ -95.497248909014175, 29.737662008607973 ], [ -95.497358157951567, 29.737664866815873 ], [ -95.498325056158166, 29.737644828847994 ], [ -95.499189459047898, 29.737627862619565 ], [ -95.499400582463466, 29.737623718502999 ], [ -95.50090569503196, 29.737594162839059 ], [ -95.501345675538488, 29.737590782923828 ] ] } },
{ "type": "Feature", "properties": { "OBJECTID": 88, "Full_Name": "WESTHEIMER RD", "Ped_Death_Count": 5, "Bike_Death_Count": 2, "Veh_Death_Count": 0, "Ped_Crash_Count": 9, "Bike_Crash_Count": 2, "Veh_Crash_Count": 2, "Total_Crash_Count": 13, "RoadLength": 2640.0002, "Miles": 0.5, "CrashRate": 26.0, "Total_Death_Count": 7, "Shape__Length": 2640.0001836371789 }, "geometry": { "type": "LineString", "coordinates": [ [ -95.484712368838217, 29.737822094316641 ], [ -95.485306035443429, 29.737814234434857 ], [ -95.487211451523194, 29.737788995548119 ], [ -95.488557215045674, 29.737767980159489 ], [ -95.489851818266743, 29.737734852196343 ], [ -95.491599881358795, 29.737703972950399 ], [ -95.492857433526865, 29.737678758381421 ], [ -95.493029517253646, 29.737676211807077 ] ] } },
{ "type": "Feature", "properties": { "OBJECTID": 89, "Full_Name": "WESTHEIMER RD", "Ped_Death_Count": 2, "Bike_Death_Count": 0, "Veh_Death_Count": 0, "Ped_Crash_Count": 8, "Bike_Crash_Count": 0, "Veh_Crash_Count": 6, "Total_Crash_Count": 14, "RoadLength": 2639.9999, "Miles": 0.5, "CrashRate": 28.0, "Total_Death_Count": 2, "Shape__Length": 2639.9999088448144 }, "geometry": { "type": "LineString", "coordinates": [ [ -95.476397982841917, 29.737908525173946 ], [ -95.476574836725106, 29.737919621546627 ], [ -95.476968843804286, 29.737922435646041 ], [ -95.477231784559436, 29.737912165520026 ], [ -95.477723245071871, 29.737908596547538 ], [ -95.477993428767988, 29.737882717243995 ], [ -95.47842105695041, 29.73789669391682 ], [ -95.479396865688727, 29.737874263595973 ], [ -95.479538185662179, 29.737886223011532 ], [ -95.480113781024414, 29.737881197760089 ], [ -95.481497494803065, 29.73785763430535 ], [ -95.482479530936047, 29.737832003526641 ], [ -95.483793425583144, 29.737822071660101 ], [ -95.484287921529102, 29.737827711119476 ], [ -95.484667408291358, 29.737822689152583 ], [ -95.484712368838217, 29.737822094316641 ] ] } },
{ "type": "Feature", "properties": { "OBJECTID": 90, "Full_Name": "WESTHEIMER RD", "Ped_Death_Count": 1, "Bike_Death_Count": 0, "Veh_Death_Count": 3, "Ped_Crash_Count": 3, "Bike_Crash_Count": 0, "Veh_Crash_Count": 4, "Total_Crash_Count": 7, "RoadLength": 2640.0001, "Miles": 0.5, "CrashRate": 14.0, "Total_Death_Count": 4, "Shape__Length": 2640.0000658556069 }, "geometry": { "type": "LineString", "coordinates": [ [ -95.468499450340246, 29.739935508400958 ], [ -95.469433866796891, 29.739618027705799 ], [ -95.470650537515212, 29.739204634414513 ], [ -95.472525736844233, 29.738546577017949 ], [ -95.472862897192527, 29.738439641868851 ], [ -95.473883457708212, 29.738086733062584 ], [ -95.474252672152417, 29.737997125013617 ], [ -95.47464146568673, 29.737951207509251 ], [ -95.476348556457381, 29.737905423474452 ], [ -95.476397982841917, 29.737908525173946 ] ] } },
{ "type": "Feature", "properties": { "OBJECTID": 91, "Full_Name": "WESTHEIMER RD", "Ped_Death_Count": 2, "Bike_Death_Count": 0, "Veh_Death_Count": 3, "Ped_Crash_Count": 6, "Bike_Crash_Count": 1, "Veh_Crash_Count": 3, "Total_Crash_Count": 10, "RoadLength": 2639.9999, "Miles": 0.5, "CrashRate": 20.0, "Total_Death_Count": 5, "Shape__Length": 2639.9999201699138 }, "geometry": { "type": "LineString", "coordinates": [ [ -95.460313521522366, 29.740885307724444 ], [ -95.460512846377583, 29.740882297589785 ], [ -95.460900128900008, 29.740840727678687 ], [ -95.461348358016195, 29.740821910147602 ], [ -95.461900305651213, 29.740794315207914 ], [ -95.462071072657437, 29.740785778060506 ], [ -95.464188239356616, 29.740679907121194 ], [ -95.465958258011995, 29.740562623502004 ], [ -95.466948933207078, 29.740462298305594 ], [ -95.468499450340246, 29.739935508400958 ] ] } },
{ "type": "Feature", "properties": { "OBJECTID": 92, "Full_Name": "WESTHEIMER RD", "Ped_Death_Count": 2, "Bike_Death_Count": 0, "Veh_Death_Count": 0, "Ped_Crash_Count": 3, "Bike_Crash_Count": 0, "Veh_Crash_Count": 7, "Total_Crash_Count": 10, "RoadLength": 2640.0, "Miles": 0.5, "CrashRate": 20.0, "Total_Death_Count": 2, "Shape__Length": 2639.9999969055366 }, "geometry": { "type": "LineString", "coordinates": [ [ -95.452017134774053, 29.741411345146989 ], [ -95.452110266613658, 29.741406169682637 ], [ -95.45261444504871, 29.741377506659099 ], [ -95.45343868156786, 29.741318217416424 ], [ -95.453930128060037, 29.74128334428201 ], [ -95.454590521340862, 29.741242525661228 ], [ -95.45556383285934, 29.741181094489757 ], [ -95.4577181639158, 29.741028395039415 ], [ -95.458081695769408, 29.741013439107487 ], [ -95.458191393441169, 29.741008926671832 ], [ -95.458292431517833, 29.741005938165923 ], [ -95.458680671786723, 29.740994454591828 ], [ -95.459376520593651, 29.740955868460357 ], [ -95.459644474734347, 29.740931869699974 ], [ -95.46026340466257, 29.740886065076118 ], [ -95.460313521522366, 29.740885307724444 ] ] } },
{ "type": "Feature", "properties": { "OBJECTID": 93, "Full_Name": "WESTPARK DR", "Ped_Death_Count": 3, "Bike_Death_Count": 0, "Veh_Death_Count": 1, "Ped_Crash_Count": 4, "Bike_Crash_Count": 0, "Veh_Crash_Count": 5, "Total_Crash_Count": 9, "RoadLength": 2639.9998, "Miles": 0.5, "CrashRate": 18.0, "Total_Death_Count": 4, "Shape__Length": 2639.9998007215863 }, "geometry": { "type": "LineString", "coordinates": [ [ -95.532492465764534, 29.720431635390213 ], [ -95.533347577938116, 29.720372372181675 ], [ -95.534326752646066, 29.72026124183682 ], [ -95.535296605901934, 29.720350041190411 ], [ -95.535424040978839, 29.720377106588305 ], [ -95.536272141384401, 29.720582302054435 ], [ -95.536451626423741, 29.720647642915271 ], [ -95.536535800184424, 29.720679191252831 ], [ -95.537079050713075, 29.720932121769366 ], [ -95.537360688836159, 29.721094089368634 ], [ -95.537492709536934, 29.721169951401436 ], [ -95.537944124504435, 29.72148512132522 ], [ -95.538104086054702, 29.721596948336316 ], [ -95.538290747432868, 29.721715340433008 ], [ -95.538616352914019, 29.721903896776663 ], [ -95.539080788003034, 29.722099956857917 ], [ -95.539609367805241, 29.722289840219734 ], [ -95.539753715204256, 29.722353932066824 ], [ -95.540083300314706, 29.722470478625151 ], [ -95.540156669422004, 29.722496707004346 ] ] } },
{ "type": "Feature", "properties": { "OBJECTID": 94, "Full_Name": "WESTPARK DR", "Ped_Death_Count": 1, "Bike_Death_Count": 0, "Veh_Death_Count": 1, "Ped_Crash_Count": 1, "Bike_Crash_Count": 0, "Veh_Crash_Count": 4, "Total_Crash_Count": 5, "RoadLength": 2640.0001, "Miles": 0.5, "CrashRate": 10.0, "Total_Death_Count": 2, "Shape__Length": 2640.0001192462414 }, "geometry": { "type": "LineString", "coordinates": [ [ -95.507652148733158, 29.722486055296052 ], [ -95.507705448689961, 29.722481620191896 ], [ -95.50877737647248, 29.722401108044185 ], [ -95.509260130854315, 29.722364847732507 ], [ -95.509913356169349, 29.722304451663785 ], [ -95.510792589168801, 29.722222740588954 ], [ -95.512326416507904, 29.722100164089287 ], [ -95.513941819722547, 29.721975254019878 ], [ -95.514726070793159, 29.721914344272022 ], [ -95.515934200167663, 29.721816891346762 ] ] } },
{ "type": "Feature", "properties": { "OBJECTID": 95, "Full_Name": "WESTPARK DR", "Ped_Death_Count": 1, "Bike_Death_Count": 1, "Veh_Death_Count": 0, "Ped_Crash_Count": 1, "Bike_Crash_Count": 1, "Veh_Crash_Count": 3, "Total_Crash_Count": 5, "RoadLength": 2639.9999, "Miles": 0.5, "CrashRate": 10.0, "Total_Death_Count": 2, "Shape__Length": 2639.9999114955344 }, "geometry": { "type": "LineString", "coordinates": [ [ -95.499370298826804, 29.72315519459471 ], [ -95.501038718680263, 29.723004201179126 ], [ -95.50121499229563, 29.722992061583632 ], [ -95.501976165562809, 29.722939639789121 ], [ -95.502726859110311, 29.722866483444776 ], [ -95.503485502451397, 29.722813079907141 ], [ -95.504376008343215, 29.722749990725042 ], [ -95.505982935471494, 29.722624954911662 ], [ -95.507652148733158, 29.722486055296052 ] ] } },
{ "type": "Feature", "properties": { "OBJECTID": 96, "Full_Name": "WILCREST DR", "Ped_Death_Count": 0, "Bike_Death_Count": 0, "Veh_Death_Count": 2, "Ped_Crash_Count": 3, "Bike_Crash_Count": 0, "Veh_Crash_Count": 4, "Total_Crash_Count": 7, "RoadLength": 2639.9998, "Miles": 0.5, "CrashRate": 14.0, "Total_Death_Count": 2, "Shape__Length": 2639.9997766916554 }, "geometry": { "type": "LineString", "coordinates": [ [ -95.571075655984075, 29.694401047354638 ], [ -95.571065854728545, 29.693971717734339 ], [ -95.57107189125179, 29.693230194600186 ], [ -95.571060541617271, 29.692444273170576 ], [ -95.571042770669138, 29.6920412984101 ], [ -95.571035537415781, 29.691802612358718 ], [ -95.571011848764954, 29.691478716686493 ], [ -95.570968904650499, 29.691173597374089 ], [ -95.570912741408605, 29.690830876865551 ], [ -95.570651446833921, 29.689826938029302 ], [ -95.570549610684637, 29.689454496189242 ], [ -95.570256407341148, 29.688374438114938 ], [ -95.570089091612758, 29.68777586332002 ], [ -95.570032577097706, 29.687568536748657 ], [ -95.569953902346029, 29.68727677662962 ], [ -95.569945962743162, 29.687245988279869 ] ] } }
]
}
